dSITES,borough,siteType,name,Address,xCor,yCor,matAcc,days,hours,months,req,organizer,compBy,website
5000,Manhattan,NULL,NULL,"605 West 30th Street, between 11th and 12th Avenues, opposite Manhattan 6 Garage	",983130.4,213727.9,"Batteries, Motor oil, Motor oil filters, Fluorescent light bulbs & CFLs, Latex paint, Mercury-containing devices, Passenger car tires, Electronics ",NULL,NULL,NULL,Only non-commercial materials; a NYS driver's license and vehicle registration OR (if not driving) a photo ID and proof of residency,NULL,NULL,http://www1.nyc.gov/assets/dsny/zerowaste/residents/special-waste-drop-off-sites.shtml
5000,Brooklyn,NULL,NULL,"1824 Shore Parkway, between 25th Avenue and Bay 41st Street, adjacent to Brooklyn South 11 Garage	",985633.4,154770.8,"Batteries, Motor oil, Motor oil filters, Fluorescent light bulbs & CFLs, Latex paint, Mercury-containing devices, Passenger car tires, Electronics",NULL,NULL,NULL,Only non-commercial materials; a NYS driver's license and vehicle registration OR (if not driving) a photo ID and proof of residency,NULL,NULL,http://www1.nyc.gov/assets/dsny/zerowaste/residents/special-waste-drop-off-sites.shtml
5000,Queens,NULL,NULL,"120-15 31st Avenue, College Point, adjacent to Queens East 7 Garage	",1026496.5,220158.6,"Batteries, Motor oil, Motor oil filters, Fluorescent light bulbs & CFLs, Latex paint, Mercury-containing devices, Passenger car tires, Electronics",NULL,NULL,NULL,Only non-commercial materials; a NYS driver's license and vehicle registration OR (if not driving) a photo ID and proof of residency,NULL,NULL,http://www1.nyc.gov/assets/dsny/zerowaste/residents/special-waste-drop-off-sites.shtml
5000,Bronx,NULL,NULL,"Farragut and Halleck Streets, opposite the Hunts Point Food Cooperative",1018856.6,231988.9,"Batteries, Motor oil, Motor oil filters, Fluorescent light bulbs & CFLs, Latex paint, Mercury-containing devices, Passenger car tires, Electronics",NULL,NULL,NULL,Only non-commercial materials; a NYS driver's license and vehicle registration OR (if not driving) a photo ID and proof of residency,NULL,NULL,http://www1.nyc.gov/assets/dsny/zerowaste/residents/special-waste-drop-off-sites.shtml
5000,Staten Island,NULL,NULL,"Foot of Muldoon Avenue, off the West Shore Expressway, adjacent to Staten Island 3 Garage",930589.5,145667.5,"Batteries, Motor oil, Motor oil filters, Fluorescent light bulbs & CFLs, Latex paint, Mercury-containing devices, Passenger car tires, Electronics",NULL,NULL,NULL,Only non-commercial materials; a NYS driver's license and vehicle registration OR (if not driving) a photo ID and proof of residency,NULL,NULL,http://www1.nyc.gov/assets/dsny/zerowaste/residents/special-waste-drop-off-sites.shtml
2000,Bronx,Subproperty,227th St. Plgd,E 227 St/Bronx River Pkway,40.89084899,-73.86422392,NULL,NULL,NULL,NULL,NULL,NULL,NULL,NULL
2000,Bronx,Subproperty,Allerton Ballfields,Allerton Ave & Moshulu Pkway,40.84889079,-73.87712839,NULL,NULL,NULL,NULL,NULL,NULL,NULL,NULL
2000,Bronx,Outdoor,Arthur Ave & E 187 St,Arthur Ave & 187 St,40.85557,-73.887565,NULL,NULL,NULL,NULL,NULL,NULL,NULL,NULL
2000,Bronx,Outdoor,Barstow Mansion,"895 Shore Road, Pelham Bay Park",40.871864,-73.805549,NULL,NULL,NULL,NULL,NULL,NULL,NULL,NULL
2000,Bronx,Subproperty,Bradley Playground,2001-2017 Bronx Park E,40.851889,-73.868549,NULL,NULL,NULL,NULL,NULL,NULL,NULL,NULL
2000,Bronx,Outdoor,Bronx Botanical Gardens,Visitors Service Center,40.861526,-73.880659,NULL,NULL,NULL,NULL,NULL,NULL,NULL,NULL
2000,Bronx,Outdoor,Bronx Botanical Gardens,Visitors Service Center,40.860755,-73.880423,NULL,NULL,NULL,NULL,NULL,NULL,NULL,NULL
2000,Bronx,Outdoor,Bronx Botanical Gardens,Visitors Service Center,40.859644,-73.880472,NULL,NULL,NULL,NULL,NULL,NULL,NULL,NULL
2000,Bronx,Outdoor,Bronx Botanical Gardens,Visitors Service Center,40.862602,-73.880171,NULL,NULL,NULL,NULL,NULL,NULL,NULL,NULL
2000,Bronx,Outdoor,Bronx County Courthouse,161 ST/Grand Concourse,40.826939,-73.922314,NULL,NULL,NULL,NULL,NULL,NULL,NULL,NULL
2000,Bronx,Outdoor,Bronx County Courthouse,161 ST/Grand Concourse,40.826627,-73.922447,NULL,NULL,NULL,NULL,NULL,NULL,NULL,NULL
2000,Bronx,Outdoor,Bronx Park,Lydig Ave & Bronx Park E,40.854322,-73.869764,NULL,NULL,NULL,NULL,NULL,NULL,NULL,NULL
2000,Bronx,Outdoor,Bronx Park Playground at Lydig,Lydig Ave & Bronx Park E,40.854445,-73.869863,NULL,NULL,NULL,NULL,NULL,NULL,NULL,NULL
2000,Bronx,Outdoor,Bronx Zoo,Entrance to Cafeteria,40.84976,-73.880055,NULL,NULL,NULL,NULL,NULL,NULL,NULL,NULL
2000,Bronx,Outdoor,Bronx Zoo,Cafeteria,40.850017,-73.880035,NULL,NULL,NULL,NULL,NULL,NULL,NULL,NULL
2000,Bronx,Greenthumb,Bryant Hill Community Garden,Bryant Avenue Bet. Seneca and Garrison Aves.,40.819933,-73.887069,NULL,NULL,NULL,NULL,NULL,NULL,NULL,NULL
2000,Bronx,Outdoor,Burke Bridge,Burke Bridge,40.871706,-73.872741,NULL,NULL,NULL,NULL,NULL,NULL,NULL,NULL
2000,Bronx,Outdoor,College of Mt. St. Vincent,In front of Alumnae Hall,40.911295,-73.907652,NULL,NULL,NULL,NULL,NULL,NULL,NULL,NULL
2000,Bronx,Outdoor,College of Mt. St. Vincent,In front of Cardinal Spellman Hall,40.911236,-73.90791,NULL,NULL,NULL,NULL,NULL,NULL,NULL,NULL
2000,Bronx,Outdoor,Concrete Plant Park,Bronx River bet. Westchster Av and Bruckner Blvd,40.825217,-73.88546,NULL,NULL,NULL,NULL,NULL,NULL,NULL,NULL
2000,Bronx,Outdoor,Crotona Park,1700 Crotona Ave,40.840115,-73.895513,NULL,NULL,NULL,NULL,NULL,NULL,NULL,NULL
2000,Bronx,Outdoor,Crotona Park,1700 Crotona Ave,40.835226,-73.895652,NULL,NULL,NULL,NULL,NULL,NULL,NULL,NULL
2000,Bronx,Outdoor,Crotona Park,1700 Crotona Ave,40.84133,-73.892702,NULL,NULL,NULL,NULL,NULL,NULL,NULL,NULL
2000,Bronx,Outdoor,Crotona Park,1700 Crotona Ave,40.840876,-73.898206,NULL,NULL,NULL,NULL,NULL,NULL,NULL,NULL
2000,Bronx,Outdoor,Crotona Park,1700 Crotona Ave,40.838351,-73.893566,NULL,NULL,NULL,NULL,NULL,NULL,NULL,NULL
2000,Bronx,Outdoor,Crotona Park,1700 Crotona Ave,40.841123,-73.898056,NULL,NULL,NULL,NULL,NULL,NULL,NULL,NULL
2000,Bronx,Outdoor,E 174 St & Manor Ave,174 St & Manor Ave,40.83377,-73.877453,NULL,NULL,NULL,NULL,NULL,NULL,NULL,NULL
2000,Bronx,Outdoor,E 176 St & Marmion Ave,176 St & Marmion Ave,40.841444,-73.888487,NULL,NULL,NULL,NULL,NULL,NULL,NULL,NULL
2000,Bronx,Outdoor,E Gun Hill Rd & Bronxwood Ave,Gun Hill Rd & Bronxwood Ave,40.875553,-73.860526,NULL,NULL,NULL,NULL,NULL,NULL,NULL,NULL
2000,Bronx,Outdoor,E Tremont Ave & Bruckner Blvd,Tremont Ave & Bruckner Blvd,40.833109,-73.828285,NULL,NULL,NULL,NULL,NULL,NULL,NULL,NULL
2000,Bronx,Outdoor,E Tremont Ave & University Ave,Tremont Ave & University Ave,40.85042,-73.915529,NULL,NULL,NULL,NULL,NULL,NULL,NULL,NULL
2000,Bronx,Outdoor,Echo Park,315 Echo Pl,40.849292,-73.902175,NULL,NULL,NULL,NULL,NULL,NULL,NULL,NULL
2000,Bronx,Greenthumb,Edith Community Garden (830 Elton Tenants Assoc.),836 Elton Avenue,40.822893,-73.91266,NULL,NULL,NULL,NULL,NULL,NULL,NULL,NULL
2000,Bronx,Greenthumb,El Flamboyan,Tinton Avenue @ E. 150th Street,40.813663,-73.905898,NULL,NULL,NULL,NULL,NULL,NULL,NULL,NULL
2000,Bronx,Greenthumb,Family Group Garden,419 East 158th Street,40.82201,-73.914009,NULL,NULL,NULL,NULL,NULL,NULL,NULL,NULL
2000,Bronx,Outdoor,Fordham University,Grand Concourse West & Fordham Rd,40.862402,-73.897174,NULL,NULL,NULL,NULL,NULL,NULL,NULL,NULL
2000,Bronx,Outdoor,Fordham University,Main Entrance (Kazimiroff Blvd),40.861379,-73.881414,NULL,NULL,NULL,NULL,NULL,NULL,NULL,NULL
2000,Bronx,Outdoor,Fordham University,Side Entrance (E Fordham Rd & 3 Ave),40.861267,-73.89014,NULL,NULL,NULL,NULL,NULL,NULL,NULL,NULL
2000,Bronx,Outdoor,Fordham University,Kingsbridge Rd & Fordham Rd,40.861948,-73.893726,NULL,NULL,NULL,NULL,NULL,NULL,NULL,NULL
2000,Bronx,Subproperty,French Charley Playground,"E 204 St, W/S Bronx Park",40.869996,-73.876238,NULL,NULL,NULL,NULL,NULL,NULL,NULL,NULL
2000,Bronx,Greenthumb,Hornaday Community Garden (volky Flower Garden),851 Hornaday Avenue,40.847026,-73.882534,NULL,NULL,NULL,NULL,NULL,NULL,NULL,NULL
2000,Bronx,Outdoor,HUB 3rd Ave,3 Ave & 149 St,40.816171,-73.917594,NULL,NULL,NULL,NULL,NULL,NULL,NULL,NULL
2000,Bronx,Outdoor,Hunts Point,Hunt's Point Ave Btwn. Spofford Ave & Bryant Ave,40.814213,-73.885886,NULL,NULL,NULL,NULL,NULL,NULL,NULL,NULL
2000,Bronx,Indoor,Hunt's Point,Hunt's Point Ave Btwn. Spofford Ave & Bryant Ave,40.814213,-73.885886,NULL,NULL,NULL,NULL,NULL,NULL,NULL,NULL
2000,Bronx,Outdoor,Hunt's point Riverside Park- Plgd - Parks,Lafayette Ave & Edgewater Rd,40.817471,-73.882622,NULL,NULL,NULL,NULL,NULL,NULL,NULL,NULL
2000,Bronx,Greenthumb,Isla Verde Garden,625 Wales Avenue,40.81484,-73.90691,NULL,NULL,NULL,NULL,NULL,NULL,NULL,NULL
2000,Bronx,Greenthumb,Jardin de las Rosas,15 Buchanan Place,40.858005,-73.90485,NULL,NULL,NULL,NULL,NULL,NULL,NULL,NULL
2000,Bronx,Outdoor,Joyce Kilmer,E 164 St Btwn. Grand Concourse & Walton Ave,40.829632,-73.921933,NULL,NULL,NULL,NULL,NULL,NULL,NULL,NULL
2000,Bronx,Outdoor,Joyce Kilmer,E 164 St Btwn. Grand Concourse & Walton Ave,40.827502,-73.923062,NULL,NULL,NULL,NULL,NULL,NULL,NULL,NULL
2000,Bronx,Indoor,Kingsbridge Heights Community Center,3101 Kingsbridge Ave,40.877667,-73.90062,NULL,NULL,NULL,NULL,NULL,NULL,NULL,NULL
2000,Bronx,Greenthumb,Las Casitas Communitiy Garden,1126-1140 Woodycrest Avenue,40.835694,-73.925664,NULL,NULL,NULL,NULL,NULL,NULL,NULL,NULL
2000,Bronx,Greenthumb,Little Green Garden (3) Large lower expanse,E 160th St and Elton Ave,40.82297053,-73.91288322,NULL,NULL,NULL,NULL,NULL,NULL,NULL,NULL
2000,Bronx,Outdoor,Mill Pond,Mill Pond Park,40.8229924,-73.93189254,NULL,NULL,NULL,NULL,NULL,NULL,NULL,NULL
2000,Bronx,Outdoor,Mullaly,E 165 St Btwn. Jerome Ave & River Ave,40.834258,-73.923392,NULL,NULL,NULL,NULL,NULL,NULL,NULL,NULL
2000,Bronx,Outdoor,Mullaly,E 165 St Btwn. Jerome Ave & River Ave,40.831466,-73.923947,NULL,NULL,NULL,NULL,NULL,NULL,NULL,NULL
2000,Bronx,Outdoor,Muskrat Playground,Bronx Park,40.84155572,-73.87752267,NULL,NULL,NULL,NULL,NULL,NULL,NULL,NULL
2000,Bronx,Greenthumb,New Hoe Avenue Garden,"E/S Hoe Ave., S/O/ Aldus Street ",40.822711,-73.890242,NULL,NULL,NULL,NULL,NULL,NULL,NULL,NULL
2000,Bronx,Subproperty,Niles Triangle,Bronx Park,40.889428,-73.864356,NULL,NULL,NULL,NULL,NULL,NULL,NULL,NULL
2000,Bronx,Outdoor,Noble Playground,Noble Ave Btwn. Bronx River Ave & E 177 St,40.836706,-73.872355,NULL,NULL,NULL,NULL,NULL,NULL,NULL,NULL
2000,Bronx,Outdoor,Nursery,Van Cortlandt Park,40.90208,-73.868519,NULL,NULL,NULL,NULL,NULL,NULL,NULL,NULL
2000,Bronx,Subproperty,Olinville,Bronx Blvd & E 219 St,40.884079,-73.866996,NULL,NULL,NULL,NULL,NULL,NULL,NULL,NULL
2000,Bronx,Outdoor,"Orchard Beach picnic areas, basketball ct, Pelham playground, Nature Center, Boathouse",Orchard Beach,40.866292,-73.794774,NULL,NULL,NULL,NULL,NULL,NULL,NULL,NULL
2000,Bronx,Outdoor,"Orchard Beach picnic areas, basketball ct, Pelham playground, Nature Center, Boathouse",Orchard Beach,40.867984,-73.793396,NULL,NULL,NULL,NULL,NULL,NULL,NULL,NULL
2000,Bronx,Outdoor,"Orchard Beach picnic areas, basketball ct, Pelham playground, Nature Center, Boathouse",Orchard Beach,40.868802,-73.792261,NULL,NULL,NULL,NULL,NULL,NULL,NULL,NULL
2000,Bronx,Outdoor,"Orchard Beach picnic areas, basketball ct, Pelham playground, Nature Center, Boathouse",Orchard Beach,40.869068,-73.792558,NULL,NULL,NULL,NULL,NULL,NULL,NULL,NULL
2000,Bronx,Outdoor,"Orchard Beach picnic areas, basketball ct, Pelham playground, Nature Center, Boathouse",Orchard Beach,40.872275,-73.797323,NULL,NULL,NULL,NULL,NULL,NULL,NULL,NULL
2000,Bronx,Outdoor,Owen Dolan,2551 Westchester Ave,40.840504,-73.842668,NULL,NULL,NULL,NULL,NULL,NULL,NULL,NULL
2000,Bronx,Outdoor,Owen Dolan,2551 Westchester Ave,40.840626,-73.843231,NULL,NULL,NULL,NULL,NULL,NULL,NULL,NULL
2000,Bronx,Outdoor,P.O. Serrano,Olmstead Ave Btwn Turnbull Ave & Lafayette Ave,40.82366,-73.850766,NULL,NULL,NULL,NULL,NULL,NULL,NULL,NULL
2000,Bronx,Outdoor,Pearly Gates,St. Peter's Ave at Tratman Ave,40.838797,-73.845791,NULL,NULL,NULL,NULL,NULL,NULL,NULL,NULL
2000,Bronx,Outdoor,"Pelham Bay  Ball field, north picnic area",Pelham Bay Park,40.851723,-73.824697,NULL,NULL,NULL,NULL,NULL,NULL,NULL,NULL
2000,Bronx,Outdoor,"Pelham Bay picnic, running track",Pelham Bay Park,40.849069,-73.822954,NULL,NULL,NULL,NULL,NULL,NULL,NULL,NULL
2000,Bronx,Outdoor,Quarry Ballfield- Parks,"E 181 St, oak Tree Pl Btwn. Quarry Rd & Hughes Ave",40.850274,-73.88992,NULL,NULL,NULL,NULL,NULL,NULL,NULL,NULL
2000,Bronx,Greenthumb,River Garden,1086 East 180th Street,40.841884,-73.876389,NULL,NULL,NULL,NULL,NULL,NULL,NULL,NULL
2000,Bronx,Outdoor,River Park,E 180 St & Boston Rd,40.842795,-73.877694,NULL,NULL,NULL,NULL,NULL,NULL,NULL,NULL
2000,Bronx,Outdoor,Riverdale Neighborhood House,5521 Mosholu Ave,40.903281,-73.903612,NULL,NULL,NULL,NULL,NULL,NULL,NULL,NULL
2000,Bronx,Outdoor,Rosehill Park- Parks,Webster Ave & E Fordham Rd,40.861953,-73.890736,NULL,NULL,NULL,NULL,NULL,NULL,NULL,NULL
2000,Bronx,Subproperty,Rosewood- Parks,Bronx River Pkwy & Rosewood St,40.873199,-73.87052,NULL,NULL,NULL,NULL,NULL,NULL,NULL,NULL
2000,Bronx,Subproperty,Sachkera Plgd – Parks,W Gunhill Rd & Knox Pl,40.883881,-73.881691,NULL,NULL,NULL,NULL,NULL,NULL,NULL,NULL
2000,Bronx,Outdoor,Seton Falls Park,E 223 St & De Reimer Ave,40.888353,-73.840908,NULL,NULL,NULL,NULL,NULL,NULL,NULL,NULL
2000,Bronx,Outdoor,Seton Falls Park,3800 Baychester Ave,40.885219,-73.840474,NULL,NULL,NULL,NULL,NULL,NULL,NULL,NULL
2000,Bronx,Outdoor,Skate Park at Allerton,Bronx Park East Btwn Britton St & Allerton Ave,40.865657,-73.850613,NULL,NULL,NULL,NULL,NULL,NULL,NULL,NULL
2000,Bronx,Outdoor,Skyview Shopping Plaza,Skyview Shopping Plaza (Riverdale Ave & 259 St),40.906878,-73.904143,NULL,NULL,NULL,NULL,NULL,NULL,NULL,NULL
2000,Bronx,Outdoor,Soundview – Parks,Lafayette Ave Btwn Colgate Ave & Boynton Ave,40.819113,-73.878003,NULL,NULL,NULL,NULL,NULL,NULL,NULL,NULL
2000,Bronx,Outdoor,Soundview – Parks,Metcalf Ave Btwn Lafayette Ave & Seward Ave,40.819274,-73.870418,NULL,NULL,NULL,NULL,NULL,NULL,NULL,NULL
2000,Bronx,Outdoor,Soundview – Parks,Metcalf Ave Btwn Seward Ave & Randall Ave,40.817335,-73.870322,NULL,NULL,NULL,NULL,NULL,NULL,NULL,NULL
2000,Bronx,Outdoor,Soundview – Parks,Soundview Park,40.816505,-73.872564,NULL,NULL,NULL,NULL,NULL,NULL,NULL,NULL
2000,Bronx,Outdoor,Southern Blvd & E 173 St,Southern Blvd & 173 St,40.835694,-73.888776,NULL,NULL,NULL,NULL,NULL,NULL,NULL,NULL
2000,Bronx,Subproperty,Southwest Plgd – Parks,Van Cortlandt Park,40.886538,-73.898453,NULL,NULL,NULL,NULL,NULL,NULL,NULL,NULL
2000,Bronx,Outdoor,Spuyton Duyvil plgd,Seton Park,40.887313,-73.916308,NULL,NULL,NULL,NULL,NULL,NULL,NULL,NULL
2000,Bronx,Indoor,St. James,Jerome Ave,40.865469,-73.898571,NULL,NULL,NULL,NULL,NULL,NULL,NULL,NULL
2000,Bronx,Indoor,St. James,Jerome Ave,40.864779,-73.899257,NULL,NULL,NULL,NULL,NULL,NULL,NULL,NULL
2000,Bronx,Indoor,St. James,E 193 St,40.866089,-73.896967,NULL,NULL,NULL,NULL,NULL,NULL,NULL,NULL
2000,Bronx,Indoor,St. Mary's,St. Anns Ave & E 145 St,40.811712,-73.914339,NULL,NULL,NULL,NULL,NULL,NULL,NULL,NULL
2000,Bronx,Indoor,St. Mary's,St. Anns Ave & E 145 St,40.811588,-73.914342,NULL,NULL,NULL,NULL,NULL,NULL,NULL,NULL
2000,Bronx,Greenthumb,Sunflower Garden/Girasol,639 E. 137th Street,40.80531601,-73.91533212,NULL,NULL,NULL,NULL,NULL,NULL,NULL,NULL
2000,Bronx,Subproperty,"Van Cortlandt  ballfield, tennis and picnic",Broadway & Putnam Trail,40.887317,-73.899006,NULL,NULL,NULL,NULL,NULL,NULL,NULL,NULL
2000,Bronx,Subproperty,"Van Cortlandt  ballfield, tennis and picnic",Broadway & Van Cortlandt Park 242 St,40.888933,-73.898324,NULL,NULL,NULL,NULL,NULL,NULL,NULL,NULL
2000,Bronx,Subproperty,"Van Cortlandt  ballfield, tennis and picnic",Van Cortlandt Park,40.888224,-73.896655,NULL,NULL,NULL,NULL,NULL,NULL,NULL,NULL
2000,Bronx,Outdoor,Van Cortlandt Park,Van Cortlandt Park,40.890172,-73.896375,NULL,NULL,NULL,NULL,NULL,NULL,NULL,NULL
2000,Bronx,Subproperty,Van Cortlandt Stadium,Van Cortlandt Park,40.888255,-73.897777,NULL,NULL,NULL,NULL,NULL,NULL,NULL,NULL
2000,Bronx,Subproperty,Van Cortlandt Stadium,Van Cortlandt Park,40.889096,-73.892278,NULL,NULL,NULL,NULL,NULL,NULL,NULL,NULL
2000,Bronx,Outdoor,Virginia Park,Cross Bronx Expwy Service Rd,40.833505,-73.86232,NULL,NULL,NULL,NULL,NULL,NULL,NULL,NULL
2000,Bronx,Greenthumb,Vogue Community Garden,431 E. 156th Street,40.82057088,-73.91403138,NULL,NULL,NULL,NULL,NULL,NULL,NULL,NULL
2000,Bronx,Subproperty,Waring Plgd,"Waring Ave, Bronx Park E",40.860641,-73.871488,NULL,NULL,NULL,NULL,NULL,NULL,NULL,NULL
2000,Bronx,Outdoor,Watson & Gleason,Noble Ave Btwn Watson Ave & Gleason Ave,40.828933,-73.869326,NULL,NULL,NULL,NULL,NULL,NULL,NULL,NULL
2000,Bronx,Indoor,West Bronx Rec. Ctr,1527 Jesup Ave,40.844147,-73.918886,NULL,NULL,NULL,NULL,NULL,NULL,NULL,NULL
2000,Bronx,Subproperty,Woodlawn Tennis,Van Cortlandt Park,40.895803,-73.87943,NULL,NULL,NULL,NULL,NULL,NULL,NULL,NULL
2000,Brooklyn,Greenthumb,A Better Community Garden,762-764 Herkimer Place/13-21 Hunterfly,40.677973,-73.928171,NULL,NULL,NULL,NULL,NULL,NULL,NULL,NULL
2000,Brooklyn,Outdoor,Asser Levy,Seaside Park,40.57519,-73.971342,NULL,NULL,NULL,NULL,NULL,NULL,NULL,NULL
2000,Brooklyn,Outdoor,Asser Levy,Seaside Park,40.575239,-73.971889,NULL,NULL,NULL,NULL,NULL,NULL,NULL,NULL
2000,Brooklyn,Outdoor,Bay Ridge,5 Ave & Bay Ridge Pkwy,40.629573,-74.022532,NULL,NULL,NULL,NULL,NULL,NULL,NULL,NULL
2000,Brooklyn,Outdoor,Bensonhurst,Bensohurst Park,40.596833,-73.9994,NULL,NULL,NULL,NULL,NULL,NULL,NULL,NULL
2000,Brooklyn,Outdoor,Boerum,Boerum Park,40.68463,-73.990234,NULL,NULL,NULL,NULL,NULL,NULL,NULL,NULL
2000,Brooklyn,Outdoor,Brooklyn War Memorial,Brooklyn War Memorial,40.696536,-73.990675,NULL,NULL,NULL,NULL,NULL,NULL,NULL,NULL
2000,Brooklyn,Outdoor,Brower,Park Pl Btwn Brooklyn Ave & Kingston Ave,40.673811,-73.943717,NULL,NULL,NULL,NULL,NULL,NULL,NULL,NULL
2000,Brooklyn,Indoor,Brownsville Rec Ctr,1555 Linden Blvd,40.656762,-73.90247,NULL,NULL,NULL,NULL,NULL,NULL,NULL,NULL
2000,Brooklyn,Outdoor,Bushwick Inlet Field,Bushwick Inlet Park,40.722315,-73.961527,NULL,NULL,NULL,NULL,NULL,NULL,NULL,NULL
2000,Brooklyn,Outdoor,Cadman Plaza,Korean War Veterans Plaze,40.695873,-73.990218,NULL,NULL,NULL,NULL,NULL,NULL,NULL,NULL
2000,Brooklyn,Outdoor,Cadman Plaza,Brooklyn War Memorial,40.697327,-73.990337,NULL,NULL,NULL,NULL,NULL,NULL,NULL,NULL
2000,Brooklyn,Outdoor,Carroll Park,President St,40.681307,-73.995212,NULL,NULL,NULL,NULL,NULL,NULL,NULL,NULL
2000,Brooklyn,Outdoor,Carroll Park,Carroll St,40.680946,-73.995481,NULL,NULL,NULL,NULL,NULL,NULL,NULL,NULL
2000,Brooklyn,Outdoor,City Line Park,Fountain Ave,40.679442,-73.876233,NULL,NULL,NULL,NULL,NULL,NULL,NULL,NULL
2000,Brooklyn,Outdoor,Cobble hill park,Clinton St Btwn Congress St & Verandah Pl,40.68829,-73.996136,NULL,NULL,NULL,NULL,NULL,NULL,NULL,NULL
2000,Brooklyn,Outdoor,Columbus Park,Columbus Park,40.694143,-73.989791,NULL,NULL,NULL,NULL,NULL,NULL,NULL,NULL
2000,Brooklyn,Outdoor,Commodore Berry,Commodore Berry,40.697793,-73.978653,NULL,NULL,NULL,NULL,NULL,NULL,NULL,NULL
2000,Brooklyn,Outdoor,Cuyler Gore Park,Greene Ave,40.685861,-73.972638,NULL,NULL,NULL,NULL,NULL,NULL,NULL,NULL
2000,Brooklyn,Outdoor,David Marcus Plgd,Avenue P Btwn 4 St & 5 St,40.610033,-73.96952,NULL,NULL,NULL,NULL,NULL,NULL,NULL,NULL
2000,Brooklyn,Outdoor,Dumbo Brooklyn Heights,Front St & Washington St,40.702573,-73.989752,NULL,NULL,NULL,NULL,NULL,NULL,NULL,NULL
2000,Brooklyn,Outdoor,Dumbo Brooklyn Heights,Front St & Main St,40.702631,-73.990641,NULL,NULL,NULL,NULL,NULL,NULL,NULL,NULL
2000,Brooklyn,Outdoor,Dumbo Brooklyn Heights,Front St & Jay St,40.70238,-73.986553,NULL,NULL,NULL,NULL,NULL,NULL,NULL,NULL
2000,Brooklyn,Outdoor,Dumbo Brooklyn Heights,Church Ave & Flatbush Ave,40.65021,-73.958798,NULL,NULL,NULL,NULL,NULL,NULL,NULL,NULL
2000,Brooklyn,Outdoor,FAB,Fulton & Washington Ave,40.68293,-73.964596,NULL,NULL,NULL,NULL,NULL,NULL,NULL,NULL
2000,Brooklyn,Outdoor,FAB,Fulton St & Lafayette/Greene/S Oxford,40.687093,-73.976238,NULL,NULL,NULL,NULL,NULL,NULL,NULL,NULL
2000,Brooklyn,Outdoor,FAB,Putnam Triangle,40.682556,-73.961975,NULL,NULL,NULL,NULL,NULL,NULL,NULL,NULL
2000,Brooklyn,Outdoor,FAB,Fulton & Lafayette,40.687072,-73.976557,NULL,NULL,NULL,NULL,NULL,NULL,NULL,NULL
2000,Brooklyn,Outdoor,FAB,Fulton & Clinton Ave,40.683557,-73.966797,NULL,NULL,NULL,NULL,NULL,NULL,NULL,NULL
2000,Brooklyn,Outdoor,FAB,Lafayette & South Portland Ave,40.687208,-73.974621,NULL,NULL,NULL,NULL,NULL,NULL,NULL,NULL
2000,Brooklyn,Outdoor,Fort Greene,Washington Park & Dekalb Ave,40.689818,-73.9732,NULL,NULL,NULL,NULL,NULL,NULL,NULL,NULL
2000,Brooklyn,Indoor,Fort Hamilton Sr. Center,9941 Fort Hamilton Pkwy,40.613322,-74.030067,NULL,NULL,NULL,NULL,NULL,NULL,NULL,NULL
2000,Brooklyn,Greenthumb,Good Shepheard's Community Group,555-557 Shepherd Ave.,40.67073271,-73.87967557,NULL,NULL,NULL,NULL,NULL,NULL,NULL,NULL
2000,Brooklyn,Greenthumb,Gregory's Garden (P.S. 158 Memorial Garden,"444,448 Warwich Avenue",40.672659,-73.885742,NULL,NULL,NULL,NULL,NULL,NULL,NULL,NULL
2000,Brooklyn,Greenthumb,Hands  & Hearts(New Lots Urban Farm),New Lots Ave at Alabama Avenue,40.66101,-73.895627,NULL,NULL,NULL,NULL,NULL,NULL,NULL,NULL
2000,Brooklyn,Outdoor,Harry Chapin Plgd,Hillside Park,40.700784,-73.995146,NULL,NULL,NULL,NULL,NULL,NULL,NULL,NULL
2000,Brooklyn,Greenthumb,Herbal Garden,582-590 Glenmore Ave.,40.674221,-73.888573,NULL,NULL,NULL,NULL,NULL,NULL,NULL,NULL
2000,Brooklyn,Outdoor,JJ Byrne,4 St Btwn 4 Ave & 5 Ave,40.67269,-73.984796,NULL,NULL,NULL,NULL,NULL,NULL,NULL,NULL
2000,Brooklyn,Outdoor,JJ Byrne,4 St Btwn 4 Ave & 5 Ave,40.673262,-73.984332,NULL,NULL,NULL,NULL,NULL,NULL,NULL,NULL
2000,Brooklyn,Outdoor,Kaiser,Neptune Ave,40.578225,-73.994834,NULL,NULL,NULL,NULL,NULL,NULL,NULL,NULL
2000,Brooklyn,Outdoor,Kelly,Kelly Memorial Playground,40.603519,-73.957375,NULL,NULL,NULL,NULL,NULL,NULL,NULL,NULL
2000,Brooklyn,Outdoor,Korean War Vet,Cadman Plaza,40.695719,-73.990256,NULL,NULL,NULL,NULL,NULL,NULL,NULL,NULL
2000,Brooklyn,Outdoor,Manhattan Beach +BBQ,Oriental Blvd,40.577672,-73.944616,NULL,NULL,NULL,NULL,NULL,NULL,NULL,NULL
2000,Brooklyn,Outdoor,Manhattan Beach +BBQ,Oriental Blvd,40.577211,-73.946587,NULL,NULL,NULL,NULL,NULL,NULL,NULL,NULL
2000,Brooklyn,Outdoor,Marine Park,Marine Park,40.604085,-73.930703,NULL,NULL,NULL,NULL,NULL,NULL,NULL,NULL
2000,Brooklyn,Outdoor,McCarren Park,Bedford Ave,40.721612,-73.953668,NULL,NULL,NULL,NULL,NULL,NULL,NULL,NULL
2000,Brooklyn,Outdoor,McCarren Park,Bedford Ave,40.721535,-73.954114,NULL,NULL,NULL,NULL,NULL,NULL,NULL,NULL
2000,Brooklyn,Outdoor,McCarren Park,Driggs Ave,40.720622,-73.952488,NULL,NULL,NULL,NULL,NULL,NULL,NULL,NULL
2000,Brooklyn,Outdoor,McCarren Park,Driggs Ave & Lorimer St,40.721653,-73.950305,NULL,NULL,NULL,NULL,NULL,NULL,NULL,NULL
2000,Brooklyn,Outdoor,McCarren Park,McCarren Park,40.719973,-73.952215,NULL,NULL,NULL,NULL,NULL,NULL,NULL,NULL
2000,Brooklyn,Outdoor,McCarren Park,Bedford Ave,40.72173,-73.953298,NULL,NULL,NULL,NULL,NULL,NULL,NULL,NULL
2000,Brooklyn,Outdoor,McCarren Park,N 12 St,40.721075,-73.955512,NULL,NULL,NULL,NULL,NULL,NULL,NULL,NULL
2000,Brooklyn,Outdoor,McCarren Park,Berry St,40.721933,-73.955283,NULL,NULL,NULL,NULL,NULL,NULL,NULL,NULL
2000,Brooklyn,Outdoor,McGorlick Park,McGorlick Park,40.724446,-73.943326,NULL,NULL,NULL,NULL,NULL,NULL,NULL,NULL
2000,Brooklyn,Indoor,Metropolitan Rec Ctr,261 Bedford Ave,40.715086,-73.960546,NULL,NULL,NULL,NULL,NULL,NULL,NULL,NULL
2000,Brooklyn,Outdoor,Metrotech,Willoughby St & Bridge St,40.692165,-73.985247,NULL,NULL,NULL,NULL,NULL,NULL,NULL,NULL
2000,Brooklyn,Outdoor,Mt. Prospect plgd,Mt. Prospect Park,40.67207,-73.96598,NULL,NULL,NULL,NULL,NULL,NULL,NULL,NULL
2000,Brooklyn,Outdoor,Myrtle Ave BID,Myrtle Ave & Ashland Pl,40.693473,-73.979168,NULL,NULL,NULL,NULL,NULL,NULL,NULL,NULL
2000,Brooklyn,Outdoor,Myrtle Ave BID,Myrtle Ave & Adelphi St,40.693222,-73.971887,NULL,NULL,NULL,NULL,NULL,NULL,NULL,NULL
2000,Brooklyn,Outdoor,Myrtle Ave BID,Myrtle Ave & Clinton Ave,40.693127,-73.96879,NULL,NULL,NULL,NULL,NULL,NULL,NULL,NULL
2000,Brooklyn,Outdoor,Myrtle Ave BID,Myrtle Ave & Hall St,40.693456,-73.965908,NULL,NULL,NULL,NULL,NULL,NULL,NULL,NULL
2000,Brooklyn,Outdoor,N. 5th St. pier,N. 5th St. pier,40.720628,-73.965524,NULL,NULL,NULL,NULL,NULL,NULL,NULL,NULL
2000,Brooklyn,Greenthumb,New Vision Garden,590-594 Schenck Avenue,40.6659,-73.887172,NULL,NULL,NULL,NULL,NULL,NULL,NULL,NULL
2000,Brooklyn,Outdoor,Owl's Head,Owl's Head,40.639285,-74.031909,NULL,NULL,NULL,NULL,NULL,NULL,NULL,NULL
2000,Brooklyn,Outdoor,Palato plgd,Manhattan Beach Park,40.577492,-73.946325,NULL,NULL,NULL,NULL,NULL,NULL,NULL,NULL
2000,Brooklyn,Outdoor,Park Slope,7 Ave & 6 St,40.668797,-73.980144,NULL,NULL,NULL,NULL,NULL,NULL,NULL,NULL
2000,Brooklyn,Outdoor,Park Slope Playground,Berkeley Lincoln Playground,40.676639,-73.978903,NULL,NULL,NULL,NULL,NULL,NULL,NULL,NULL
2000,Brooklyn,Outdoor,Pierrepont Park,Pierrepon St,40.696389,-73.99734,NULL,NULL,NULL,NULL,NULL,NULL,NULL,NULL
2000,Brooklyn,Outdoor,Prospect Park,Prospect Park West,40.664608,-73.976666,NULL,NULL,NULL,NULL,NULL,NULL,NULL,NULL
2000,Brooklyn,Outdoor,Prospect Park,Prospect Park West,40.66132,-73.979593,NULL,NULL,NULL,NULL,NULL,NULL,NULL,NULL
2000,Brooklyn,Outdoor,Prospect Park,Ocean Ave,40.660478,-73.963187,NULL,NULL,NULL,NULL,NULL,NULL,NULL,NULL
2000,Brooklyn,Outdoor,Prospect Park,Ocean Ave,40.655183,-73.962214,NULL,NULL,NULL,NULL,NULL,NULL,NULL,NULL
2000,Brooklyn,Greenthumb,Red Gate Garden,604 Marcy Avenue,40.693761,-73.948972,NULL,NULL,NULL,NULL,NULL,NULL,NULL,NULL
2000,Brooklyn,Outdoor,Red Hook Park,Red Hook Park,40.677265,-74.008353,NULL,NULL,NULL,NULL,NULL,NULL,NULL,NULL
2000,Brooklyn,Indoor,Salt marsh,3301 Avenue U,40.604374,-73.930741,NULL,NULL,NULL,NULL,NULL,NULL,NULL,NULL
2000,Brooklyn,Outdoor,Shore Road Plgd,Shore Rd Park,40.617506,-74.040033,NULL,NULL,NULL,NULL,NULL,NULL,NULL,NULL
2000,Brooklyn,Outdoor,South Oxport,Oxport Playground,40.697746,-73.976199,NULL,NULL,NULL,NULL,NULL,NULL,NULL,NULL
2000,Brooklyn,Outdoor,Squibb Park,Btwn Furman St & Columbia Heights,40.701079,-73.995307,NULL,NULL,NULL,NULL,NULL,NULL,NULL,NULL
2000,Brooklyn,Greenthumb,St. John Cantius,476-484 New Jersey Avenue,40.667491,-73.89384,NULL,NULL,NULL,NULL,NULL,NULL,NULL,NULL
2000,Brooklyn,Indoor,St. John's,St. John's Park,40.673754,-73.934855,NULL,NULL,NULL,NULL,NULL,NULL,NULL,NULL
2000,Brooklyn,Greenthumb,St. Nicholas-Olive Street Garden,21-25 Olive Street,40.713316,-73.938974,NULL,NULL,NULL,NULL,NULL,NULL,NULL,NULL
2000,Brooklyn,Outdoor,Starret City,1344 Pennsylvania Avenue,40.650143,-73.884372,NULL,NULL,NULL,NULL,NULL,NULL,NULL,NULL
2000,Brooklyn,Outdoor,Sternberg Park,Lorimer St,40.706315,-73.948025,NULL,NULL,NULL,NULL,NULL,NULL,NULL,NULL
2000,Brooklyn,Outdoor,Sternberg Park,Boerum St,40.705616,-73.947172,NULL,NULL,NULL,NULL,NULL,NULL,NULL,NULL
2000,Brooklyn,Indoor,Sunset Park,5 Ave & 44 St,40.648468,-74.006771,NULL,NULL,NULL,NULL,NULL,NULL,NULL,NULL
2000,Brooklyn,Outdoor,Sunset Park,5 Ave & 44 St,40.64848,-74.006674,NULL,NULL,NULL,NULL,NULL,NULL,NULL,NULL
2000,Brooklyn,Greenthumb,Ten Eyck Houses,15-17 Ten Eyck Street,40.709648,-73.950166,NULL,NULL,NULL,NULL,NULL,NULL,NULL,NULL
2000,Brooklyn,Greenthumb,"Triple R/Relaxation, Reflection, Revenue (Victoria Garden)",613 Hendrix Street,40.666548,-73.887691,NULL,NULL,NULL,NULL,NULL,NULL,NULL,NULL
2000,Brooklyn,Greenthumb,UCC (United Community Centers) Youth Farm/East New York Farms,613 Schenck Avenue,40.665324,-73.886769,NULL,NULL,NULL,NULL,NULL,NULL,NULL,NULL
2000,Brooklyn,Outdoor,Underhill Playground,Underhill Ave & Prospect Pl,40.676766,-73.965902,NULL,NULL,NULL,NULL,NULL,NULL,NULL,NULL
2000,Brooklyn,Outdoor,Underwood Playground,Underwood Park,40.688204,-73.966559,NULL,NULL,NULL,NULL,NULL,NULL,NULL,NULL
2000,Brooklyn,Greenthumb,Upon the Rock,2556 Pitkin Avenue.,40.674329,-73.877867,NULL,NULL,NULL,NULL,NULL,NULL,NULL,NULL
2000,Brooklyn,Greenthumb,Vernon (Throop Avenue Block Assoc.),253 Throop Avenue,40.695221,-73.943264,NULL,NULL,NULL,NULL,NULL,NULL,NULL,NULL
2000,Brooklyn,Greenthumb,Welcome Home,681 Halsey Street,40.684658,-73.925222,NULL,NULL,NULL,NULL,NULL,NULL,NULL,NULL
2000,Manhattan,Greenthumb,6BC Botanical Garden,624-628 E. 6th Street,40.723831,-73.980677,NULL,NULL,NULL,NULL,NULL,NULL,NULL,NULL
2000,Manhattan,Outdoor,1 Centre Street,1 Centre Street,40.712187,-74.005701,NULL,NULL,NULL,NULL,NULL,NULL,NULL,NULL
2000,Manhattan,Indoor,100 Centre St,100 Centre St,40.715827,-74.000488,NULL,NULL,NULL,NULL,NULL,NULL,NULL,NULL
2000,Manhattan,Outdoor,100 Centre Street,100 Centre Street (South Entrance),40.715923,-74.001448,NULL,NULL,NULL,NULL,NULL,NULL,NULL,NULL
2000,Manhattan,Outdoor,100 Gold Street,100 Gold Street,40.71045,-74.003755,NULL,NULL,NULL,NULL,NULL,NULL,NULL,NULL
2000,Manhattan,Indoor,111 Centre St,111 Centre St,40.716396,-74.001359,NULL,NULL,NULL,NULL,NULL,NULL,NULL,NULL
2000,Manhattan,Outdoor,115 Chrystie St,115 Chrystie St (Outside Main Entrance),40.718605,-73.993763,NULL,NULL,NULL,NULL,NULL,NULL,NULL,NULL
2000,Manhattan,Outdoor,125 St. BID,125 St & Lenox Ave,40.807945,-73.945623,NULL,NULL,NULL,NULL,NULL,NULL,NULL,NULL
2000,Manhattan,Outdoor,137 Centre Street,137 Centre St (Centre St & White St),40.716941,-74.000816,NULL,NULL,NULL,NULL,NULL,NULL,NULL,NULL
2000,Manhattan,Outdoor,2 Lafayette St,2 Lafayette St (Lafayette St & Reade St),40.713608,-74.003619,NULL,NULL,NULL,NULL,NULL,NULL,NULL,NULL
2000,Manhattan,Outdoor,22 Reade St,22 Reade St (Reade St & Elk St),40.714023,-74.004472,NULL,NULL,NULL,NULL,NULL,NULL,NULL,NULL
2000,Manhattan,Outdoor,280 Broadway,Broadway Btwn Reade St & Chambers St,40.714399,-74.006131,NULL,NULL,NULL,NULL,NULL,NULL,NULL,NULL
2000,Manhattan,Indoor,346 Broadway,346 Broadway,40.716827,-74.004185,NULL,NULL,NULL,NULL,NULL,NULL,NULL,NULL
2000,Manhattan,Outdoor,34th St,34 St & 7 Ave,40.750901,-73.990843,NULL,NULL,NULL,NULL,NULL,NULL,NULL,NULL
2000,Manhattan,Outdoor,49-51 Chambers Street,49-51 Chambers Street (Outside Main Entrance),40.71368,-74.005513,NULL,NULL,NULL,NULL,NULL,NULL,NULL,NULL
2000,Manhattan,Outdoor,60 Lafayette St,60 Lafayette St (Lafayette & Leonard),40.716158,-74.002555,NULL,NULL,NULL,NULL,NULL,NULL,NULL,NULL
2000,Manhattan,Indoor,60 Lafayette St,60 Lafayette St,40.716458,-74.002467,NULL,NULL,NULL,NULL,NULL,NULL,NULL,NULL
2000,Manhattan,Indoor,80 Centre St,80 Centre St,40.715387,-74.001773,NULL,NULL,NULL,NULL,NULL,NULL,NULL,NULL
2000,Manhattan,Outdoor,96th St Train Station (under our supervision),96 St & Lexington Ave,40.785787,-73.951092,NULL,NULL,NULL,NULL,NULL,NULL,NULL,NULL
2000,Manhattan,Outdoor,96th St Train Station (under our supervision),96 St & Lexington Ave,40.785717,-73.950922,NULL,NULL,NULL,NULL,NULL,NULL,NULL,NULL
2000,Manhattan,Indoor,Al Smith Rec Ctr,80 Catherine St,40.710412,-73.996979,NULL,NULL,NULL,NULL,NULL,NULL,NULL,NULL
2000,Manhattan,Indoor,Asser Levy Rec Ctr,384 Asser Levy Pl,40.736271,-73.975508,NULL,NULL,NULL,NULL,NULL,NULL,NULL,NULL
2000,Manhattan,Outdoor,Battery Park - DSNY Partnership,Battery Park,40.704592,-74.016957,NULL,NULL,NULL,NULL,NULL,NULL,NULL,NULL
2000,Manhattan,Outdoor,Battery Park City,Battery Park City,40.711576,-74.016051,NULL,NULL,NULL,NULL,NULL,NULL,NULL,NULL
2000,Manhattan,Outdoor,Battery Park City,Battery Park City,40.705075,-74.017115,NULL,NULL,NULL,NULL,NULL,NULL,NULL,NULL
2000,Manhattan,Outdoor,Battery Park City,Battery Park City,40.711565,-74.015853,NULL,NULL,NULL,NULL,NULL,NULL,NULL,NULL
2000,Manhattan,Outdoor,Bayard St & Baxter St,100 Centre Street,40.716092,-74.000134,NULL,NULL,NULL,NULL,NULL,NULL,NULL,NULL
2000,Manhattan,Outdoor,Bellevue South,Mt. Carmel Pl Btwn E 26 St & E 28 St,40.739982,-73.978053,NULL,NULL,NULL,NULL,NULL,NULL,NULL,NULL
2000,Manhattan,Outdoor,Bennett Park,Bennett Park,40.852856,-73.938098,NULL,NULL,NULL,NULL,NULL,NULL,NULL,NULL
2000,Manhattan,Outdoor,Bleecker St. Playground,W 11 St Btwn Hudson St & Bleecker St,40.736401,-74.005572,NULL,NULL,NULL,NULL,NULL,NULL,NULL,NULL
2000,Manhattan,Outdoor,Broadway & Murray St,Outside Entrance,40.712939,-74.007262,NULL,NULL,NULL,NULL,NULL,NULL,NULL,NULL
2000,Manhattan,Outdoor,Broadway & Park Place,Outside Plaza Entrance,40.71248,-74.007642,NULL,NULL,NULL,NULL,NULL,NULL,NULL,NULL
2000,Manhattan,Outdoor,Bryant Park,Bryant Park,40.754391,-73.983402,NULL,NULL,NULL,NULL,NULL,NULL,NULL,NULL
2000,Manhattan,Outdoor,Bryant Park - Bryant Park Corp.,Bryant Park,40.753954,-73.984092,NULL,NULL,NULL,NULL,NULL,NULL,NULL,NULL
2000,Manhattan,Outdoor,Carl Shurz,Carl Shurz Park,40.77453,-73.943837,NULL,NULL,NULL,NULL,NULL,NULL,NULL,NULL
2000,Manhattan,Greenthumb,Carrie McCracken Garden/TRUCE,143-145 St. Nicholas Avenue,40.804559,-73.952985,NULL,NULL,NULL,NULL,NULL,NULL,NULL,NULL
2000,Manhattan,Outdoor,Centre St & Chambers St,31 Chambers Street,40.712796,-74.004816,NULL,NULL,NULL,NULL,NULL,NULL,NULL,NULL
2000,Manhattan,Outdoor,Chelsea Park,Chelsea Park,40.749849,-74.000856,NULL,NULL,NULL,NULL,NULL,NULL,NULL,NULL
2000,Manhattan,Indoor,Chelsea Rec Center,430 W 25 St,40.748355,-74.002007,NULL,NULL,NULL,NULL,NULL,NULL,NULL,NULL
2000,Manhattan,Outdoor,Chelsea Waterside Park Field,Hudson River Park,40.749349,-74.007351,NULL,NULL,NULL,NULL,NULL,NULL,NULL,NULL
2000,Manhattan,Outdoor,Chelsea Waterside Park Playground,Hudson River Park,40.749318,-74.006981,NULL,NULL,NULL,NULL,NULL,NULL,NULL,NULL
2000,Manhattan,Outdoor,City Hall Park,City Hall Park,40.711834,-74.007124,NULL,NULL,NULL,NULL,NULL,NULL,NULL,NULL
2000,Manhattan,Outdoor,City Hall Park,City Hall Park,40.712806,-74.004808,NULL,NULL,NULL,NULL,NULL,NULL,NULL,NULL
2000,Manhattan,Outdoor,City Hall Park,City Hall Park,40.712897,-74.007269,NULL,NULL,NULL,NULL,NULL,NULL,NULL,NULL
2000,Manhattan,Outdoor,City Hall Park,City Hall Park,40.712517,-74.007573,NULL,NULL,NULL,NULL,NULL,NULL,NULL,NULL
2000,Manhattan,Outdoor,Coleman Square Playground,Coleman Square Playground,40.710746,-73.993819,NULL,NULL,NULL,NULL,NULL,NULL,NULL,NULL
2000,Manhattan,Outdoor,Colonel Young,Colonel Charles Young Playground,40.819645,-73.936417,NULL,NULL,NULL,NULL,NULL,NULL,NULL,NULL
2000,Manhattan,Outdoor,Columbus Park - DSNY Partnership,Columbus Park,40.71475,-74.000096,NULL,NULL,NULL,NULL,NULL,NULL,NULL,NULL
2000,Manhattan,Outdoor,Courtyard West,Hudson River Park,40.732377,-74.010735,NULL,NULL,NULL,NULL,NULL,NULL,NULL,NULL
2000,Manhattan,Outdoor,Crack is Wack,Harlem River Dr & 2 Ave,40.804284,-73.931744,NULL,NULL,NULL,NULL,NULL,NULL,NULL,NULL
2000,Manhattan,Outdoor,Desalvio,DeSalvio Playground,40.721757,-73.996052,NULL,NULL,NULL,NULL,NULL,NULL,NULL,NULL
2000,Manhattan,Outdoor,DSNY Main Office -Worth St,Centre Street,40.71511,-74.002359,NULL,NULL,NULL,NULL,NULL,NULL,NULL,NULL
2000,Manhattan,Outdoor,DSNY Main Office -Worth St,Lafayette Street,40.715356,-74.002985,NULL,NULL,NULL,NULL,NULL,NULL,NULL,NULL
2000,Manhattan,Outdoor,Each One Teach One,Lexington Ave & E 129 St,40.807191,-73.934751,NULL,NULL,NULL,NULL,NULL,NULL,NULL,NULL
2000,Manhattan,Outdoor,East River Park- DSNY partnership,East River Bikeway,40.716205,-73.975494,NULL,NULL,NULL,NULL,NULL,NULL,NULL,NULL
2000,Manhattan,Outdoor,Fashion BID,Broadway Btwn 39 St & 40 St,40.753938,-73.986947,NULL,NULL,NULL,NULL,NULL,NULL,NULL,NULL
2000,Manhattan,Outdoor,Fashion BID,57 St & Lexington Ave,40.760842,-73.969307,NULL,NULL,NULL,NULL,NULL,NULL,NULL,NULL
2000,Manhattan,Outdoor,Father Dumo Square,Father Demo Square,40.730225,-74.002246,NULL,NULL,NULL,NULL,NULL,NULL,NULL,NULL
2000,Manhattan,Outdoor,Foley Square - DSNY Partnership,"Foley Square, Duane St",40.714357,-74.003085,NULL,NULL,NULL,NULL,NULL,NULL,NULL,NULL
2000,Manhattan,Outdoor,Foley Square - DSNY Partnership,"Foley Square, Worth St",40.715167,-74.002599,NULL,NULL,NULL,NULL,NULL,NULL,NULL,NULL
2000,Manhattan,Outdoor,Fred Johnson,7 Ave Btwn 150 St & 151 St,40.824847,-73.935623,NULL,NULL,NULL,NULL,NULL,NULL,NULL,NULL
2000,Manhattan,Outdoor,Grand Central,42 St & Lexington Ave,40.751692,-73.975975,NULL,NULL,NULL,NULL,NULL,NULL,NULL,NULL
2000,Manhattan,Outdoor,Greenwich & Murray,270 Greenwich Street,40.715109,-74.011382,NULL,NULL,NULL,NULL,NULL,NULL,NULL,NULL
2000,Manhattan,Indoor,Hamilton Fish,Hamilton Fish Park,40.719937,-73.981432,NULL,NULL,NULL,NULL,NULL,NULL,NULL,NULL
2000,Manhattan,Outdoor,Hamilton Fish Recreation Center,Pitt St,40.720057,-73.981636,NULL,NULL,NULL,NULL,NULL,NULL,NULL,NULL
2000,Manhattan,Outdoor,Hamilton Fish Recreation Center,East River Bikeway,40.716618,-73.975256,NULL,NULL,NULL,NULL,NULL,NULL,NULL,NULL
2000,Manhattan,Outdoor,Hamilton Fish Recreation Center,East River Bikeway,40.717499,-73.974858,NULL,NULL,NULL,NULL,NULL,NULL,NULL,NULL
2000,Manhattan,Outdoor,Hamilton Fish Recreation Center,East River Bikeway,40.718372,-73.974674,NULL,NULL,NULL,NULL,NULL,NULL,NULL,NULL
2000,Manhattan,Outdoor,Hamilton Fish Recreation Center,East River Bikeway,40.718888,-73.974598,NULL,NULL,NULL,NULL,NULL,NULL,NULL,NULL
2000,Manhattan,Outdoor,Hamilton Fish Recreation Center,East River Bikeway,40.719832,-73.974488,NULL,NULL,NULL,NULL,NULL,NULL,NULL,NULL
2000,Manhattan,Outdoor,Hamilton Fish Recreation Center,East River Bikeway,40.721303,-73.974323,NULL,NULL,NULL,NULL,NULL,NULL,NULL,NULL
2000,Manhattan,Outdoor,Hamilton Fish Recreation Center,East River Bikeway,40.722911,-73.973828,NULL,NULL,NULL,NULL,NULL,NULL,NULL,NULL
2000,Manhattan,Outdoor,Hamilton Fish Recreation Center,East River Bikeway,40.723896,-73.973184,NULL,NULL,NULL,NULL,NULL,NULL,NULL,NULL
2000,Manhattan,Outdoor,Hamilton Fish Recreation Center,East River Bikeway,40.724113,-73.973016,NULL,NULL,NULL,NULL,NULL,NULL,NULL,NULL
2000,Manhattan,Outdoor,Hamilton Fish Recreation Center,East River Bikeway,40.725238,-73.972364,NULL,NULL,NULL,NULL,NULL,NULL,NULL,NULL
2000,Manhattan,Indoor,Hansboro,35 W 134 St,40.812748,-73.939317,NULL,NULL,NULL,NULL,NULL,NULL,NULL,NULL
2000,Manhattan,Outdoor,Harlem RBI – Community Group,333 E 100 St,40.78613,-73.943294,NULL,NULL,NULL,NULL,NULL,NULL,NULL,NULL
2000,Manhattan,Outdoor,Harlem River Ballfield,Harlem River Park,40.806036,-73.934206,NULL,NULL,NULL,NULL,NULL,NULL,NULL,NULL
2000,Manhattan,Outdoor,Harrison St Basketball Court,Hudson River Park,40.718742,-74.013092,NULL,NULL,NULL,NULL,NULL,NULL,NULL,NULL
2000,Manhattan,Outdoor,High Line Park,Washington St & Gansevoort St,40.739465,-74.008162,NULL,NULL,NULL,NULL,NULL,NULL,NULL,NULL
2000,Manhattan,Outdoor,High Line Park,High Line Park,40.74085,-74.008056,NULL,NULL,NULL,NULL,NULL,NULL,NULL,NULL
2000,Manhattan,Outdoor,High Line Park,High Line Park,40.743298,-74.007034,NULL,NULL,NULL,NULL,NULL,NULL,NULL,NULL
2000,Manhattan,Indoor,Highbridge,Washington Bridge,40.847983,-73.929251,NULL,NULL,NULL,NULL,NULL,NULL,NULL,NULL
2000,Manhattan,Outdoor,Highline Entrance+Park,W 20 St,40.746041,-74.006109,NULL,NULL,NULL,NULL,NULL,NULL,NULL,NULL
2000,Manhattan,Outdoor,Hudson River Park,Hudson River Park,40.731457,-74.010973,NULL,NULL,NULL,NULL,NULL,NULL,NULL,NULL
2000,Manhattan,Outdoor,Hudson River Park,14 St Park,40.742795,-74.008033,NULL,NULL,NULL,NULL,NULL,NULL,NULL,NULL
2000,Manhattan,Outdoor,Hudson River Park,Pier 62 Garden Area,40.748684,-74.008825,NULL,NULL,NULL,NULL,NULL,NULL,NULL,NULL
2000,Manhattan,Outdoor,Hudson River Park,Pier 62 Skate Park,40.748507,-74.009283,NULL,NULL,NULL,NULL,NULL,NULL,NULL,NULL
2000,Manhattan,Outdoor,Hudson River Park,Pier 51 Playground,40.738145,-74.010417,NULL,NULL,NULL,NULL,NULL,NULL,NULL,NULL
2000,Manhattan,Outdoor,Hudson River Park,Pier 84 (43 St Bike Shop),40.762839,-74.001011,NULL,NULL,NULL,NULL,NULL,NULL,NULL,NULL
2000,Manhattan,Outdoor,Hudson River Park,Pier 66 Seating Area,40.751987,-74.008443,NULL,NULL,NULL,NULL,NULL,NULL,NULL,NULL
2000,Manhattan,Outdoor,Hudson River Park,Pier 95,40.770381,-73.995824,NULL,NULL,NULL,NULL,NULL,NULL,NULL,NULL
2000,Manhattan,Outdoor,Hudson River Park,Pier 40 Courtyard & Tunel,40.728833,-74.011899,NULL,NULL,NULL,NULL,NULL,NULL,NULL,NULL
2000,Manhattan,Outdoor,Hudson River Park,Tennis Courts,40.727097,-74.011512,NULL,NULL,NULL,NULL,NULL,NULL,NULL,NULL
2000,Manhattan,Outdoor,Hudson River Park,60 Centre Street,40.714666,-74.002176,NULL,NULL,NULL,NULL,NULL,NULL,NULL,NULL
2000,Manhattan,Outdoor,Hudson River Park,Battery Park Entrance (State St & Water St),40.702411,-74.012879,NULL,NULL,NULL,NULL,NULL,NULL,NULL,NULL
2000,Manhattan,Outdoor,Hudson River Park,Essex St & Delancy St,40.70235,-74.014393,NULL,NULL,NULL,NULL,NULL,NULL,NULL,NULL
2000,Manhattan,Outdoor,Hudson River Park,White Hall Ferry Terminal (Indoor & Outdoor),40.701307,-74.011998,NULL,NULL,NULL,NULL,NULL,NULL,NULL,NULL
2000,Manhattan,Outdoor,Imagination Playground,Imagination Playground,40.706124,-74.004217,NULL,NULL,NULL,NULL,NULL,NULL,NULL,NULL
2000,Manhattan,Outdoor,Inwood Dyckman fields,Inwood Hill Park,40.87126,-73.930765,NULL,NULL,NULL,NULL,NULL,NULL,NULL,NULL
2000,Manhattan,Outdoor,Inwood Dyckman fields,Inwood Hill Park,40.872594,-73.930199,NULL,NULL,NULL,NULL,NULL,NULL,NULL,NULL
2000,Manhattan,Outdoor,Inwood Hill,Inwood Hill Park,40.867338,-73.929011,NULL,NULL,NULL,NULL,NULL,NULL,NULL,NULL
2000,Manhattan,Indoor,Inwood Hill Nature Center,218 St & Indian Rd,40.87303,-73.918427,NULL,NULL,NULL,NULL,NULL,NULL,NULL,NULL
2000,Manhattan,Outdoor,J. Hood Wright,Jay Hood Wright Park,40.84637,-73.940825,NULL,NULL,NULL,NULL,NULL,NULL,NULL,NULL
2000,Manhattan,Indoor,J. Hood Wright,Jay Hood Wright Park,40.84696,-73.940028,NULL,NULL,NULL,NULL,NULL,NULL,NULL,NULL
2000,Manhattan,Indoor,Jackie Robinson,89 Bradhurst Ave,40.824297,-73.942288,NULL,NULL,NULL,NULL,NULL,NULL,NULL,NULL
2000,Manhattan,Outdoor,Jackson Square,Jackson Square,40.738952,-74.002882,NULL,NULL,NULL,NULL,NULL,NULL,NULL,NULL
2000,Manhattan,Outdoor,Jacob Javits Playground,Fort Tyron Park,40.859226,-73.934552,NULL,NULL,NULL,NULL,NULL,NULL,NULL,NULL
2000,Manhattan,Outdoor,Jacob Schiff,Jacob Schiff Playground,40.820071,-73.952107,NULL,NULL,NULL,NULL,NULL,NULL,NULL,NULL
2000,Manhattan,Outdoor,John Jay Park,John Jay Park,40.769445,-73.949898,NULL,NULL,NULL,NULL,NULL,NULL,NULL,NULL
2000,Manhattan,Greenthumb,"Life Spire (CRMD, Inc.)",2015 Lexington Avenue,40.802588,-73.938468,NULL,NULL,NULL,NULL,NULL,NULL,NULL,NULL
2000,Manhattan,Outdoor,Lincoln Square,Broadway & 66 St,40.773715,-73.981957,NULL,NULL,NULL,NULL,NULL,NULL,NULL,NULL
2000,Manhattan,Outdoor,Lincoln Square,Broadway & 63 St,40.771372,-73.982072,NULL,NULL,NULL,NULL,NULL,NULL,NULL,NULL
2000,Manhattan,Greenthumb,Maggie's Garden,1547 Lexington Ave,40.828677,-73.948059,NULL,NULL,NULL,NULL,NULL,NULL,NULL,NULL
2000,Manhattan,Outdoor,McCaffry Plgd – Parks,W 43 St Btwn 8 & 9 Ave,40.758977,-73.991396,NULL,NULL,NULL,NULL,NULL,NULL,NULL,NULL
2000,Manhattan,Greenthumb,Mobilization for Change Community Garden,955 Columbus Avenue,40.799707,-73.962203,NULL,NULL,NULL,NULL,NULL,NULL,NULL,NULL
2000,Manhattan,Outdoor,Morningside Park,W 116 St,40.805621,-73.958455,NULL,NULL,NULL,NULL,NULL,NULL,NULL,NULL
2000,Manhattan,Outdoor,Morningside Park,Morningside Ave,40.80413,-73.958298,NULL,NULL,NULL,NULL,NULL,NULL,NULL,NULL
2000,Manhattan,Outdoor,Morningside Park,W 113 St,40.803133,-73.958336,NULL,NULL,NULL,NULL,NULL,NULL,NULL,NULL
2000,Manhattan,Outdoor,Morningside Park,Morningside Dr,40.801921,-73.960854,NULL,NULL,NULL,NULL,NULL,NULL,NULL,NULL
2000,Manhattan,Greenthumb,Morris Jumel Ecological Garden,455-457 W 162nd Street,40.835708,-73.939122,NULL,NULL,NULL,NULL,NULL,NULL,NULL,NULL
2000,Manhattan,Outdoor,Museum of Natural History/Planitarium,W 79 St & Columbus Ave,40.781936,-73.97542,NULL,NULL,NULL,NULL,NULL,NULL,NULL,NULL
2000,Manhattan,Outdoor,Museum of Natural History/Planitarium,W 78 St & Columbus Ave,40.781265,-73.975927,NULL,NULL,NULL,NULL,NULL,NULL,NULL,NULL
2000,Manhattan,Outdoor,Museum of Natural History/Planitarium,Central Park West,40.780558,-73.972924,NULL,NULL,NULL,NULL,NULL,NULL,NULL,NULL
2000,Manhattan,Outdoor,Museum of Natural History/Planitarium,W 81 St Loop,40.782175,-73.972256,NULL,NULL,NULL,NULL,NULL,NULL,NULL,NULL
2000,Manhattan,Outdoor,Museum of Natural History/Planitarium,W 81 St Loop,40.782666,-73.973215,NULL,NULL,NULL,NULL,NULL,NULL,NULL,NULL
2000,Manhattan,Greenthumb,Our Little Green Acres (Garden Eight),275-277 W. 122nd St.,40.808183,-73.95205,NULL,NULL,NULL,NULL,NULL,NULL,NULL,NULL
2000,Manhattan,Outdoor,Park Row & Beekman Street,Outside Plaza  Entrance,40.711826,-74.007142,NULL,NULL,NULL,NULL,NULL,NULL,NULL,NULL
2000,Manhattan,Greenthumb,Parks Council Success Garden- P.S. 175 I.S. 275,116-122 West 134th Street,40.814478,-73.943498,NULL,NULL,NULL,NULL,NULL,NULL,NULL,NULL
2000,Manhattan,Subproperty,Payson Playground,Inwood Hill Park,40.867205,-73.929121,NULL,NULL,NULL,NULL,NULL,NULL,NULL,NULL
2000,Manhattan,Indoor,Pelham Fritz,18 Mount Morris Park,40.805463,-73.946284,NULL,NULL,NULL,NULL,NULL,NULL,NULL,NULL
2000,Manhattan,Outdoor,Pier 25,"Pier 25 West End, Hudson River Park",40.720478,-74.016223,NULL,NULL,NULL,NULL,NULL,NULL,NULL,NULL
2000,Manhattan,Outdoor,Pier 25,Hudson River Park,,,NULL,NULL,NULL,NULL,NULL,NULL,NULL,NULL
2000,Manhattan,Outdoor,Pier 25 Mini Golf & Skate Park,Hudson River Park,40.720176,-74.013949,NULL,NULL,NULL,NULL,NULL,NULL,NULL,NULL
2000,Manhattan,Outdoor,Pier 25 Playground,"Pier 25 Playground West Gate, Hudson River Park",40.719714,-74.012943,NULL,NULL,NULL,NULL,NULL,NULL,NULL,NULL
2000,Manhattan,Outdoor,Pier 40,"Pier 40 Courtyard & Tunnel, Hudson River Park",40.72917,-74.011317,NULL,NULL,NULL,NULL,NULL,NULL,NULL,NULL
2000,Manhattan,Outdoor,Pier 40 Dog Run,"Pier 40, Hudson River Park",40.73038,-74.011005,NULL,NULL,NULL,NULL,NULL,NULL,NULL,NULL
2000,Manhattan,Outdoor,Pier 40 Roof,"Pier 40, Hudson River Park",40.728828,-74.011903,NULL,NULL,NULL,NULL,NULL,NULL,NULL,NULL
2000,Manhattan,Outdoor,Pier 45,Hudson River Park,40.732971,-74.010875,NULL,NULL,NULL,NULL,NULL,NULL,NULL,NULL
2000,Manhattan,Outdoor,Pier 57,Hudson River Park,40.74341,-74.009,NULL,NULL,NULL,NULL,NULL,NULL,NULL,NULL
2000,Manhattan,Outdoor,Pier 84 (44 St Park Building),Hudson River Park,40.763247,-74.000042,NULL,NULL,NULL,NULL,NULL,NULL,NULL,NULL
2000,Manhattan,Greenthumb,Pleasant Village Community Garden,342-353 Pleasant Ave./502 E. 119th Street,40.796609,-73.931602,NULL,NULL,NULL,NULL,NULL,NULL,NULL,NULL
2000,Manhattan,Outdoor,Promenade South,Hudson River Park,40.707656,-74.015976,NULL,NULL,NULL,NULL,NULL,NULL,NULL,NULL
2000,Manhattan,Indoor,Rec Center  54,E 54 St Btwn 1 Ave & 2 Ave,40.756564,-73.965043,NULL,NULL,NULL,NULL,NULL,NULL,NULL,NULL
2000,Manhattan,Outdoor,Riverside Park- Plgd @ 83rd St.,Riverside Park,40.787059,-73.982257,NULL,NULL,NULL,NULL,NULL,NULL,NULL,NULL
2000,Manhattan,Outdoor,Rucker Park-parks,155 St & Frederick Douglass Blvd,40.829744,-73.936431,NULL,NULL,NULL,NULL,NULL,NULL,NULL,NULL
2000,Manhattan,Outdoor,Sara D. Roosevelt,Chrystie St,40.721035,-73.991596,NULL,NULL,NULL,NULL,NULL,NULL,NULL,NULL
2000,Manhattan,Outdoor,Seward park,Seward park,40.714603,-73.990111,NULL,NULL,NULL,NULL,NULL,NULL,NULL,NULL
2000,Manhattan,Greenthumb,Sixth St. & Ave. B,78-92 Avenue B,40.724254,-73.982088,NULL,NULL,NULL,NULL,NULL,NULL,NULL,NULL
2000,Manhattan,Outdoor,Soho Parnership,Broadway &  Prince St,40.724319,-73.997828,NULL,NULL,NULL,NULL,NULL,NULL,NULL,NULL
2000,Manhattan,Outdoor,Soho Partnership,Spring St & Lafayette St,40.72227,-73.997287,NULL,NULL,NULL,NULL,NULL,NULL,NULL,NULL
2000,Manhattan,Outdoor,St. Catherine's,St. Catherine's Park,40.76512,-73.958509,NULL,NULL,NULL,NULL,NULL,NULL,NULL,NULL
2000,Manhattan,Outdoor,St. Nicholas,135 St & St. Nicholas Ave,40.817272,-73.948248,NULL,NULL,NULL,NULL,NULL,NULL,NULL,NULL
2000,Manhattan,Outdoor,St. Vartan's,St. Vartan's Park,40.744858,-73.973764,NULL,NULL,NULL,NULL,NULL,NULL,NULL,NULL
2000,Manhattan,Outdoor,Stuyvesant- Parks,East River Bikeway,40.73277,-73.97406,NULL,NULL,NULL,NULL,NULL,NULL,NULL,NULL
2000,Manhattan,Outdoor,Thomas Jefferson,Jefferson Park,40.793412,-73.937115,NULL,NULL,NULL,NULL,NULL,NULL,NULL,NULL
2000,Manhattan,Outdoor,Thomas Payne,Duane St & Centre St,40.714045,-74.003135,NULL,NULL,NULL,NULL,NULL,NULL,NULL,NULL
2000,Manhattan,Outdoor,Thomas Payne,Duane St & Lafayette St,40.714224,-74.003285,NULL,NULL,NULL,NULL,NULL,NULL,NULL,NULL
2000,Manhattan,Outdoor,Thomas Payne,Centre St & Worth St,40.715059,-74.002355,NULL,NULL,NULL,NULL,NULL,NULL,NULL,NULL
2000,Manhattan,Outdoor,Thomas Payne,Lafayette St & Worth St,40.715355,-74.002982,NULL,NULL,NULL,NULL,NULL,NULL,NULL,NULL
2000,Manhattan,Outdoor,Times Square,42 St Btwn Broadway & 7 Ave,40.755914,-73.986712,NULL,NULL,NULL,NULL,NULL,NULL,NULL,NULL
2000,Manhattan,Outdoor,Tompkins Square Park,Avenue A & E 7 St,40.72603,-73.983353,NULL,NULL,NULL,NULL,NULL,NULL,NULL,NULL
2000,Manhattan,Outdoor,Tompkins Square Park,Avenue A & St. Mark's Pl,40.726599,-73.982985,NULL,NULL,NULL,NULL,NULL,NULL,NULL,NULL
2000,Manhattan,Outdoor,Tompkins Square Park,Avenue B & E 8 St,40.725698,-73.980843,NULL,NULL,NULL,NULL,NULL,NULL,NULL,NULL
2000,Manhattan,Indoor,Tony Dapolito,1 Clarkson St,40.729474,-74.005489,NULL,NULL,NULL,NULL,NULL,NULL,NULL,NULL
2000,Manhattan,Outdoor,Tribeca Partnership,Greenwich & North Moore,40.719979,-74.010272,NULL,NULL,NULL,NULL,NULL,NULL,NULL,NULL
2000,Manhattan,Outdoor,Union Square,Union Square Park,40.735243,-73.991012,NULL,NULL,NULL,NULL,NULL,NULL,NULL,NULL
2000,Manhattan,Outdoor,Union Square,Union Square Park,40.735219,-73.991603,NULL,NULL,NULL,NULL,NULL,NULL,NULL,NULL
2000,Manhattan,Outdoor,Union Square,Union Square Park,40.735292,-73.991614,NULL,NULL,NULL,NULL,NULL,NULL,NULL,NULL
2000,Manhattan,Outdoor,Union Square,Union Square Park,40.737023,-73.990324,NULL,NULL,NULL,NULL,NULL,NULL,NULL,NULL
2000,Manhattan,Outdoor,Union Square,Union Square Park,40.736535,-73.989754,NULL,NULL,NULL,NULL,NULL,NULL,NULL,NULL
2000,Manhattan,Outdoor,Union Square,Union Square Park,40.736122,-73.98963,NULL,NULL,NULL,NULL,NULL,NULL,NULL,NULL
2000,Manhattan,Outdoor,Union Square,Union Square Park,40.73534,-73.990127,NULL,NULL,NULL,NULL,NULL,NULL,NULL,NULL
2000,Manhattan,Outdoor,Verdi Square,Verdi Square,40.77878,-73.981788,NULL,NULL,NULL,NULL,NULL,NULL,NULL,NULL
2000,Manhattan,Outdoor,Vesuvio Playground,Thompson St,40.72534,-74.002324,NULL,NULL,NULL,NULL,NULL,NULL,NULL,NULL
2000,Manhattan,Outdoor,Wall Street (South/Front),107 Wall Street,40.704695,-74.006729,NULL,NULL,NULL,NULL,NULL,NULL,NULL,NULL
2000,Manhattan,Outdoor,Wall Street (Water/Front),100 Wall Street,40.704919,-74.007084,NULL,NULL,NULL,NULL,NULL,NULL,NULL,NULL
2000,Manhattan,Outdoor,Warren & Greenwich,270 Greenwich Street,40.715575,-74.011301,NULL,NULL,NULL,NULL,NULL,NULL,NULL,NULL
2000,Manhattan,Outdoor,Washington Market Playground,Washington Market Park,40.717298,-74.011001,NULL,NULL,NULL,NULL,NULL,NULL,NULL,NULL
2000,Manhattan,Outdoor,Washington Square Park,Washington Square Park,40.729689,-73.99662,NULL,NULL,NULL,NULL,NULL,NULL,NULL,NULL
2000,Manhattan,Greenthumb,West 124th Street Community Garden,West 124th Street and 5th Avenue,40.806938,-73.945301,NULL,NULL,NULL,NULL,NULL,NULL,NULL,NULL
2000,Manhattan,Outdoor,West 4th St. Courts (PLGD),6 Ave Btwn W 3 St & W 4 St,40.731315,-74.000988,NULL,NULL,NULL,NULL,NULL,NULL,NULL,NULL
2000,Manhattan,Outdoor,West End Avenuw,West End Ave & 86 St,40.788757,-73.977788,NULL,NULL,NULL,NULL,NULL,NULL,NULL,NULL
2000,Manhattan,Outdoor,Whitehall Ferry Terminal,State Street outside Whitehall Ferry Terminal,40.702335,-74.014384,NULL,NULL,NULL,NULL,NULL,NULL,NULL,NULL
2000,Queens,Indoor,A.R.R.O.W. Field house,35-30 35 St,40.755803,-73.92631,NULL,NULL,NULL,NULL,NULL,NULL,NULL,NULL
2000,Queens,Outdoor,Abe Wolfson,Abe Wolfson Triangle,40.728344,-73.815159,NULL,NULL,NULL,NULL,NULL,NULL,NULL,NULL
2000,Queens,Outdoor,Addabo Park,Addabo Park,40.673137,-73.85461,NULL,NULL,NULL,NULL,NULL,NULL,NULL,NULL
2000,Queens,Indoor,Al Oerter Rec Center,131-40 Fowler Ave,40.751418,-73.833843,NULL,NULL,NULL,NULL,NULL,NULL,NULL,NULL
2000,Queens,Indoor,Alley Pond Environmental,22806 Northern Blvd,40.76269,-73.753297,NULL,NULL,NULL,NULL,NULL,NULL,NULL,NULL
2000,Queens,Subproperty,"Alley Springfield, picnic and athletic",Alley Pond Park,40.740063,-73.734291,NULL,NULL,NULL,NULL,NULL,NULL,NULL,NULL
2000,Queens,Subproperty,"Alley Springfield, picnic and athletic",Alley Pond Park,40.739523,-73.734881,NULL,NULL,NULL,NULL,NULL,NULL,NULL,NULL
2000,Queens,Subproperty,"Alley Springfield, picnic and athletic",Alley Pond Park,40.739295,-73.735873,NULL,NULL,NULL,NULL,NULL,NULL,NULL,NULL
2000,Queens,Subproperty,"Alley Springfield, picnic and athletic",Alley Pond Park,40.738986,-73.737665,NULL,NULL,NULL,NULL,NULL,NULL,NULL,NULL
2000,Queens,Subproperty,"Alley Springfield, picnic and athletic",Alley Pond Park,40.739758,-73.73546,NULL,NULL,NULL,NULL,NULL,NULL,NULL,NULL
2000,Queens,Outdoor,Astoria Park,Astoria Park S,40.776788,-73.92753,NULL,NULL,NULL,NULL,NULL,NULL,NULL,NULL
2000,Queens,Outdoor,Austin E,Ehrenreich-Austin Playground,40.715851,-73.836995,NULL,NULL,NULL,NULL,NULL,NULL,NULL,NULL
2000,Queens,Greenthumb,B.C.C.A. Mini-Park and Garden,150-14 115th Drive,40.683453,-73.79213,NULL,NULL,NULL,NULL,NULL,NULL,NULL,NULL
2000,Queens,Outdoor,Baisley Pond Park,155 St & 125 Ave,40.675268,-73.786905,NULL,NULL,NULL,NULL,NULL,NULL,NULL,NULL
2000,Queens,Outdoor,Baisley Pond Park,Lakeview Blvd & 118 Ave,40.682418,-73.785392,NULL,NULL,NULL,NULL,NULL,NULL,NULL,NULL
2000,Queens,Outdoor,Baisley Pond Park,155 St & 118 Ave,40.681366,-73.787854,NULL,NULL,NULL,NULL,NULL,NULL,NULL,NULL
2000,Queens,Outdoor,Bland Playground,Bland Playground,40.758381,-73.831008,NULL,NULL,NULL,NULL,NULL,NULL,NULL,NULL
2000,Queens,Greenthumb,Block Association #81,Inwood Stree between Lakewood & Shore Aves,40.690594,-73.803822,NULL,NULL,NULL,NULL,NULL,NULL,NULL,NULL
2000,Queens,Outdoor,Brookville Park,143 Ave,40.66346,-73.741329,NULL,NULL,NULL,NULL,NULL,NULL,NULL,NULL
2000,Queens,Outdoor,Brookville Park,232 St,40.661051,-73.746639,NULL,NULL,NULL,NULL,NULL,NULL,NULL,NULL
2000,Queens,Outdoor,Brookville Park,147 Ave,40.657674,-73.748388,NULL,NULL,NULL,NULL,NULL,NULL,NULL,NULL
2000,Queens,Subproperty,Buzz O'Rourke Playground,Crocheron Park,40.770753,-73.77174,NULL,NULL,NULL,NULL,NULL,NULL,NULL,NULL
2000,Queens,Outdoor,Byrne Park,135 Ave btwn 131 St & 132 St,40.667505,-73.807496,NULL,NULL,NULL,NULL,NULL,NULL,NULL,NULL
2000,Queens,Outdoor,Captain Tilly,Captain Tilly Park,40.712529,-73.799377,NULL,NULL,NULL,NULL,NULL,NULL,NULL,NULL
2000,Queens,Subproperty,Charybdis plgd,Astoria Park,40.779897,-73.922391,NULL,NULL,NULL,NULL,NULL,NULL,NULL,NULL
2000,Queens,Outdoor,Crocheron Park,33 Rd & 215 Pl,40.77208,-73.769438,NULL,NULL,NULL,NULL,NULL,NULL,NULL,NULL
2000,Queens,Greenthumb,Culinary Kids,30-15 Seagirt Blvd. @ Beach 31st Street,40.595548,-73.762266,NULL,NULL,NULL,NULL,NULL,NULL,NULL,NULL
2000,Queens,Outdoor,Cunningham Ballfields,Cunningham Park,40.736722,-73.770538,NULL,NULL,NULL,NULL,NULL,NULL,NULL,NULL
2000,Queens,Outdoor,Cunningham Ballfields,Cunningham Park,40.73523,-73.772083,NULL,NULL,NULL,NULL,NULL,NULL,NULL,NULL
2000,Queens,Outdoor,Cunningham Picnic,Cunningham Park,40.730966,-73.772458,NULL,NULL,NULL,NULL,NULL,NULL,NULL,NULL
2000,Queens,Outdoor,Cunningham Soccer,Cunningham Park,40.73836,-73.764991,NULL,NULL,NULL,NULL,NULL,NULL,NULL,NULL
2000,Queens,Outdoor,Cunningham tennis courts,Cunningham Park,40.730117,-73.7727,NULL,NULL,NULL,NULL,NULL,NULL,NULL,NULL
2000,Queens,Outdoor,Cunningham tennis courts,Cunningham Park,40.729499,-73.772888,NULL,NULL,NULL,NULL,NULL,NULL,NULL,NULL
2000,Queens,Outdoor,Detective Keith Williams,Detective Keith Williams Park,40.701915,-73.783477,NULL,NULL,NULL,NULL,NULL,NULL,NULL,NULL
2000,Queens,Outdoor,Elmhurst Park,Elmhurst Park,40.730193,-73.885302,NULL,NULL,NULL,NULL,NULL,NULL,NULL,NULL
2000,Queens,Outdoor,Flushing Meadows Corona Park,United Nations Ave S,40.744249,-73.844068,NULL,NULL,NULL,NULL,NULL,NULL,NULL,NULL
2000,Queens,Outdoor,Flushing Meadows Corona Park,Amphitheater Bridge,40.740388,-73.841879,NULL,NULL,NULL,NULL,NULL,NULL,NULL,NULL
2000,Queens,Outdoor,Flushing Meadows Corona Park,Meadow Lake Trail E,40.737039,-73.837856,NULL,NULL,NULL,NULL,NULL,NULL,NULL,NULL
2000,Queens,Outdoor,Flushing Meadows Corona Park,Dinosaur Playground,40.735169,-73.843435,NULL,NULL,NULL,NULL,NULL,NULL,NULL,NULL
2000,Queens,Outdoor,Flushing Meadows Corona Park,Meadow Lake Trail W,40.7333,-73.841976,NULL,NULL,NULL,NULL,NULL,NULL,NULL,NULL
2000,Queens,Outdoor,Flushing Meadows Corona Park,Baseball Field 13,40.728112,-73.835592,NULL,NULL,NULL,NULL,NULL,NULL,NULL,NULL
2000,Queens,Outdoor,Flushing Meadows Corona Park,Unisphere,40.746639,-73.844583,NULL,NULL,NULL,NULL,NULL,NULL,NULL,NULL
2000,Queens,Outdoor,Flushing Meadows Corona Park,"Field 2, Avenue of Commerce",40.749151,-73.840066,NULL,NULL,NULL,NULL,NULL,NULL,NULL,NULL
2000,Queens,Indoor,Flushing Meadows Pool,Avery Ave & 131 St,40.751882,-73.837459,NULL,NULL,NULL,NULL,NULL,NULL,NULL,NULL
2000,Queens,Outdoor,Forest Park,Bandshell,40.698413,-73.857672,NULL,NULL,NULL,NULL,NULL,NULL,NULL,NULL
2000,Queens,Outdoor,Forest Park,Tennis Courts,40.69747,-73.856664,NULL,NULL,NULL,NULL,NULL,NULL,NULL,NULL
2000,Queens,Outdoor,Forest Park,Dog Run,40.69664,-73.860344,NULL,NULL,NULL,NULL,NULL,NULL,NULL,NULL
2000,Queens,Outdoor,Forest Park,Woodhaven Blvd & Park Lane S,40.69799,-73.853295,NULL,NULL,NULL,NULL,NULL,NULL,NULL,NULL
2000,Queens,Outdoor,Forest Park,Victory Field Soccer & Running Track,40.701854,-73.853145,NULL,NULL,NULL,NULL,NULL,NULL,NULL,NULL
2000,Queens,Outdoor,Forest Park,Victory Field Baseball,40.702293,-73.854765,NULL,NULL,NULL,NULL,NULL,NULL,NULL,NULL
2000,Queens,Outdoor,Forest Park,Myrtle Ave & Park Lane S,40.701272,-73.841922,NULL,NULL,NULL,NULL,NULL,NULL,NULL,NULL
2000,Queens,Outdoor,Fort Totten,Weaver Rd & Totten Ave,40.792357,-73.777013,NULL,NULL,NULL,NULL,NULL,NULL,NULL,NULL
2000,Queens,Outdoor,Fort Totten,North Loop,40.794781,-73.779207,NULL,NULL,NULL,NULL,NULL,NULL,NULL,NULL
2000,Queens,Outdoor,Fort Totten,Story Rd,40.792085,-73.774357,NULL,NULL,NULL,NULL,NULL,NULL,NULL,NULL
2000,Queens,Greenthumb,George Eagle Carr Community Garden,148th Street,40.692406,-73.794745,NULL,NULL,NULL,NULL,NULL,NULL,NULL,NULL
2000,Queens,Outdoor,Glendale Playground,Glendale Playground,40.704591,-73.881944,NULL,NULL,NULL,NULL,NULL,NULL,NULL,NULL
2000,Queens,Outdoor,Greenthumb compound,10 St & Queens Plaza S,40.753635,-73.947615,NULL,NULL,NULL,NULL,NULL,NULL,NULL,NULL
2000,Queens,Outdoor,Grover Cleveland,Cleveland Park,40.710069,-73.911456,NULL,NULL,NULL,NULL,NULL,NULL,NULL,NULL
2000,Queens,Outdoor,Grover Cleveland,Cleveland Park,40.71031,-73.911063,NULL,NULL,NULL,NULL,NULL,NULL,NULL,NULL
2000,Queens,Outdoor,Hoffman Park,Hoffman Park,40.733135,-73.871233,NULL,NULL,NULL,NULL,NULL,NULL,NULL,NULL
2000,Queens,Outdoor,Hoffman Park,Hoffman Park,40.733143,-73.871427,NULL,NULL,NULL,NULL,NULL,NULL,NULL,NULL
2000,Queens,Outdoor,Hoffman Park,Hoffman Park,40.733068,-73.870885,NULL,NULL,NULL,NULL,NULL,NULL,NULL,NULL
2000,Queens,Outdoor,Hoffman Park,Hoffman Park,40.732938,-73.870916,NULL,NULL,NULL,NULL,NULL,NULL,NULL,NULL
2000,Queens,Outdoor,Hoffman Park,Hoffman Park,40.732701,-73.871081,NULL,NULL,NULL,NULL,NULL,NULL,NULL,NULL
2000,Queens,Outdoor,Hoffman Park,Hoffman Park,40.733203,-73.871821999999995Q,NULL,NULL,NULL,NULL,NULL,NULL,NULL,NULL
2000,Queens,Outdoor,Juniper Valley Park,Juniper Valley Park,40.720689,-73.877521,NULL,NULL,NULL,NULL,NULL,NULL,NULL,NULL
2000,Queens,Outdoor,Juniper Valley Park,Juniper Valley Park,40.720412,-73.876474,NULL,NULL,NULL,NULL,NULL,NULL,NULL,NULL
2000,Queens,Outdoor,Juniper Valley Park,Juniper Valley Park,40.719988,-73.884693,NULL,NULL,NULL,NULL,NULL,NULL,NULL,NULL
2000,Queens,Outdoor,Juniper Valley Park,Juniper Valley Park,40.719841,-73.882971,NULL,NULL,NULL,NULL,NULL,NULL,NULL,NULL
2000,Queens,Outdoor,Kissena Park,Booth Memorial Ave,40.742502,-73.810261,NULL,NULL,NULL,NULL,NULL,NULL,NULL,NULL
2000,Queens,Outdoor,Kissena Park,Lithonia Ave,40.749228,-73.803658,NULL,NULL,NULL,NULL,NULL,NULL,NULL,NULL
2000,Queens,Outdoor,Kissena Park,Kissena Velodrome,40.744148,-73.809333,NULL,NULL,NULL,NULL,NULL,NULL,NULL,NULL
2000,Queens,Outdoor,Kissena Park,Booth Memorial Ave,40.742364,-73.808518,NULL,NULL,NULL,NULL,NULL,NULL,NULL,NULL
2000,Queens,Outdoor,Kissena Park,Rose Ave,40.747887,-73.809765,NULL,NULL,NULL,NULL,NULL,NULL,NULL,NULL
2000,Queens,Indoor,LBH Rec Center,93-29 Queens Blvd,40.732226,-73.86515,NULL,NULL,NULL,NULL,NULL,NULL,NULL,NULL
2000,Queens,Outdoor,Marie Curie Playground,Marie Curie Park,40.757266,-73.770978,NULL,NULL,NULL,NULL,NULL,NULL,NULL,NULL
2000,Queens,Outdoor,McDonald Park,McDonald Park,40.721815,-73.845511,NULL,NULL,NULL,NULL,NULL,NULL,NULL,NULL
2000,Queens,Outdoor,McDonald Park,McDonald Park,40.722012,-73.84608,NULL,NULL,NULL,NULL,NULL,NULL,NULL,NULL
2000,Queens,Outdoor,McDonald Park,McDonald Park,40.72248,-73.847477,NULL,NULL,NULL,NULL,NULL,NULL,NULL,NULL
2000,Queens,Indoor,Parks Academy,Flushing Meadows Corona Park,40.751632,-73.843676,NULL,NULL,NULL,NULL,NULL,NULL,NULL,NULL
2000,Queens,Indoor,Passerelle,Flushing Meadows Corona Park,40.751632,-73.843676,NULL,NULL,NULL,NULL,NULL,NULL,NULL,NULL
2000,Queens,Indoor,Passerelle - Aquatics,Flushing Meadows Corona Park,40.750333,-73.8441,NULL,NULL,NULL,NULL,NULL,NULL,NULL,NULL
2000,Queens,Outdoor,Phil Rizzuto Park,Phil Rizzuto Park,40.694407,-73.822116,NULL,NULL,NULL,NULL,NULL,NULL,NULL,NULL
2000,Queens,Subproperty,Playground for All Children,Flushing Meadows Corona Park,40.740883,-73.849318,NULL,NULL,NULL,NULL,NULL,NULL,NULL,NULL
2000,Queens,Outdoor,Pomonok Playground,Pomonok Playground,40.736171,-73.814014,NULL,NULL,NULL,NULL,NULL,NULL,NULL,NULL
2000,Queens,Indoor,Queens Hall of Science,47-01 111 St,40.747127,-73.852214,NULL,NULL,NULL,NULL,NULL,NULL,NULL,NULL
2000,Queens,Indoor,Queens Museum,"New York City Building, Flushing Meadows Corona Park",40.745794,-73.846729,NULL,NULL,NULL,NULL,NULL,NULL,NULL,NULL
2000,Queens,Indoor,Queens Theatre,14 United Nations Ave S,40.744152,-73.844476,NULL,NULL,NULL,NULL,NULL,NULL,NULL,NULL
2000,Queens,Indoor,Queens Zoo,53-51 111 St,40.743599,-73.850355,NULL,NULL,NULL,NULL,NULL,NULL,NULL,NULL
2000,Queens,Outdoor,Rainey park,Rainey Park,40.765644,-73.941159,NULL,NULL,NULL,NULL,NULL,NULL,NULL,NULL
2000,Queens,Outdoor,Rockaway Beach,B 105 St Boardwalk,40.580754,-73.824936,NULL,NULL,NULL,NULL,NULL,NULL,NULL,NULL
2000,Queens,Outdoor,Rockaway Beach,B 102 St Boardwalk,40.5814,-73.823377,NULL,NULL,NULL,NULL,NULL,NULL,NULL,NULL
2000,Queens,Outdoor,Rockaway Beach,B 100 St Boardwalk,40.582137,-73.820127,NULL,NULL,NULL,NULL,NULL,NULL,NULL,NULL
2000,Queens,Outdoor,Rockaway Beach,B 99 St Boardwalk,40.582479,-73.819097,NULL,NULL,NULL,NULL,NULL,NULL,NULL,NULL
2000,Queens,Outdoor,Rockaway Beach,B 97 St Boardwalk,40.582825,-73.817858,NULL,NULL,NULL,NULL,NULL,NULL,NULL,NULL
2000,Queens,Outdoor,Rockaway Beach,B 95 St Boardwalk,40.583412,-73.815484,NULL,NULL,NULL,NULL,NULL,NULL,NULL,NULL
2000,Queens,Outdoor,Rockaway Beach,B 91 St Boardwalk,40.58415,-73.812472,NULL,NULL,NULL,NULL,NULL,NULL,NULL,NULL
2000,Queens,Outdoor,Rockaway Beach,B 90 St Boardwalk,40.5844,-73.811254,NULL,NULL,NULL,NULL,NULL,NULL,NULL,NULL
2000,Queens,Outdoor,Rockaway Beach,B 81 St Boardwalk,40.585826,-73.807265,NULL,NULL,NULL,NULL,NULL,NULL,NULL,NULL
2000,Queens,Outdoor,Rockaway Beach,Bayside Pl Boardwalk,40.585105,-73.809223,NULL,NULL,NULL,NULL,NULL,NULL,NULL,NULL
2000,Queens,Outdoor,Rocket Park,Rocket Park,40.670613,-73.846257,NULL,NULL,NULL,NULL,NULL,NULL,NULL,NULL
2000,Queens,Outdoor,Roy Wilkens,Baisley Blvd,40.685918,-73.769315,NULL,NULL,NULL,NULL,NULL,NULL,NULL,NULL
2000,Queens,Outdoor,Roy Wilkens,Roy Wilkens,40.688249,-73.773574,NULL,NULL,NULL,NULL,NULL,NULL,NULL,NULL
2000,Queens,Outdoor,Roy Wilkens,115 Ave & 175 St,40.691011,-73.774207,NULL,NULL,NULL,NULL,NULL,NULL,NULL,NULL
2000,Queens,Outdoor,Socrates Park,Socrates Park,40.768029,-73.936159,NULL,NULL,NULL,NULL,NULL,NULL,NULL,NULL
2000,Queens,Indoor,Sorrentino,1848 Cornaga Ave,40.602281,-73.751564,NULL,NULL,NULL,NULL,NULL,NULL,NULL,NULL
2000,Queens,Outdoor,Southern Fields,Southern Pkwy,40.665379,-73.824555,NULL,NULL,NULL,NULL,NULL,NULL,NULL,NULL
2000,Queens,Outdoor,Southern Fields,Southern Pkwy,40.665627,-73.826703,NULL,NULL,NULL,NULL,NULL,NULL,NULL,NULL
2000,Queens,Outdoor,St. Michaels,St. Michael's Playground,40.758219,-73.900278,NULL,NULL,NULL,NULL,NULL,NULL,NULL,NULL
2000,Queens,Outdoor,Steinway St,BW 34 St & Broadway,40.758155,-73.919785,NULL,NULL,NULL,NULL,NULL,NULL,NULL,NULL
2000,Queens,Outdoor,Sunnyside Garden Park,Sunnyside Garden Park,40.749844,-73.91475,NULL,NULL,NULL,NULL,NULL,NULL,NULL,NULL
2000,Queens,Outdoor,Sunnyside Garden Park,Sunnyside Garden Park,40.749547,-73.91514,NULL,NULL,NULL,NULL,NULL,NULL,NULL,NULL
2000,Queens,Outdoor,Sunnyside Garden Park,Sunnyside Garden Park,40.749687,-73.91427,NULL,NULL,NULL,NULL,NULL,NULL,NULL,NULL
2000,Queens,Outdoor,Travers Park,Travers Park,40.754243,-73.889365,NULL,NULL,NULL,NULL,NULL,NULL,NULL,NULL
2000,Queens,Subproperty,Underhill,Cunningham Park,40.741628,-73.777362,NULL,NULL,NULL,NULL,NULL,NULL,NULL,NULL
2000,Queens,Greenthumb,William Simmons Community Garden Club,173 St,40.701651,-73.78315,NULL,NULL,NULL,NULL,NULL,NULL,NULL,NULL
2000,Queens,Indoor,World ice rink,Flushing Meadows Corona Park,40.751914,-73.83732,NULL,NULL,NULL,NULL,NULL,NULL,NULL,NULL
2000,Staten Island,Subproperty,Berry Homes ballfield,"Gen. Douglas Macarthur Park, Dongan Hills Ave",40.587445,-74.100364,NULL,NULL,NULL,NULL,NULL,NULL,NULL,NULL
2000,Staten Island,Subproperty,Berry Homes ballfield,"Gen. Douglas Macarthur Park, Dongan Hills Ave",40.586439,-74.100257,NULL,NULL,NULL,NULL,NULL,NULL,NULL,NULL
2000,Staten Island,Outdoor,150 St,New Dorp Lane & S Railroad Ave,40.574036,-74.116627,NULL,NULL,NULL,NULL,NULL,NULL,NULL,NULL
2000,Staten Island,Outdoor,Bloomingdale Playgound,"Bloomingdale Park, Lenevar Ave & Ramona Ave",40.53514,-74.208524,NULL,NULL,NULL,NULL,NULL,NULL,NULL,NULL
2000,Staten Island,Outdoor,Bloomingdale Playgound,Bloomingdale Park,40.533819,-74.210241,NULL,NULL,NULL,NULL,NULL,NULL,NULL,NULL
2000,Staten Island,Outdoor,Bloomingdale Playgound,"Bloomingdale Park, Richmond Pkwy & Lenevar Ave",40.531521,-74.207153,NULL,NULL,NULL,NULL,NULL,NULL,NULL,NULL
2000,Staten Island,Outdoor,Bloomingdale Playgound,Bloomingdale Park,40.535174,-74.210125,NULL,NULL,NULL,NULL,NULL,NULL,NULL,NULL
2000,Staten Island,Outdoor,Cedar Grove Beach,Cedar Grove Beach,40.557382,-74.10392,NULL,NULL,NULL,NULL,NULL,NULL,NULL,NULL
2000,Staten Island,Outdoor,Cedar Grove Beach,Cedar Grove Beach,40.560272,-74.10104,NULL,NULL,NULL,NULL,NULL,NULL,NULL,NULL
2000,Staten Island,Indoor,Clove lake garage complex,Clove Lake Park,40.620135,-74.118801,NULL,NULL,NULL,NULL,NULL,NULL,NULL,NULL
2000,Staten Island,Indoor,Clove lake garage complex,Clove Lake Park,40.618744,-74.118278,NULL,NULL,NULL,NULL,NULL,NULL,NULL,NULL
2000,Staten Island,Outdoor,Cloves Lake,Clove Lake Park,40.613891,-74.113523,NULL,NULL,NULL,NULL,NULL,NULL,NULL,NULL
2000,Staten Island,Outdoor,Corporal Thompson Playground,CPL Thompson Park,40.637872,-74.118791,NULL,NULL,NULL,NULL,NULL,NULL,NULL,NULL
2000,Staten Island,Indoor,DeMatti Playground,Thompkins Ave Btwn Chestnut Ave & Shaughnessy Ln,40.614615,-74.07412,NULL,NULL,NULL,NULL,NULL,NULL,NULL,NULL
2000,Staten Island,Indoor,Faber Pool,Faber Pool and Park,40.640999,-74.135418,NULL,NULL,NULL,NULL,NULL,NULL,NULL,NULL
2000,Staten Island,Indoor,Graniteville,Jennifer's Playground,40.62005569,-74.16311549,NULL,NULL,NULL,NULL,NULL,NULL,NULL,NULL
2000,Staten Island,Indoor,Greenbelt Nature Center,700 Rockland Ave,40.588496,-74.138918,NULL,NULL,NULL,NULL,NULL,NULL,NULL,NULL
2000,Staten Island,Outdoor,Greenbelt Park,South Beach,40.584516,-74.125035,NULL,NULL,NULL,NULL,NULL,NULL,NULL,NULL
2000,Staten Island,Indoor,Greenbelt Rec Ctr,501 Brielle Ave,40.593686,-74.135646,NULL,NULL,NULL,NULL,NULL,NULL,NULL,NULL
2000,Staten Island,Subproperty,John M. D'Amato Field,Miller Field,40.564469,-74.097531,NULL,NULL,NULL,NULL,NULL,NULL,NULL,NULL
2000,Staten Island,Indoor,Lyons Pool,Tompkinsville Play Center,40.637596,-74.074802,NULL,NULL,NULL,NULL,NULL,NULL,NULL,NULL
2000,Staten Island,Outdoor,MacArthur Park,MacArthur Park,40.585877,-74.100975,NULL,NULL,NULL,NULL,NULL,NULL,NULL,NULL
2000,Staten Island,Outdoor,Mahony Playground,Crescent Ave Btwn Jersey St & Beechwood Ave,40.643368,-74.086066,NULL,NULL,NULL,NULL,NULL,NULL,NULL,NULL
2000,Staten Island,Outdoor,Midland Beach,Midland Playground,40.575019,-74.098706,NULL,NULL,NULL,NULL,NULL,NULL,NULL,NULL
2000,Staten Island,Outdoor,Midland Beach,"Midland Field, Bedford Ave ",40.57669,-74.098663,NULL,NULL,NULL,NULL,NULL,NULL,NULL,NULL
2000,Staten Island,Outdoor,Prall Playground,Forest Ave & Elizabeth St,40.628859,-74.118013,NULL,NULL,NULL,NULL,NULL,NULL,NULL,NULL
2000,Staten Island,Outdoor,Silver Lake Dog Run,Silver Lake Park,40.627186,-74.091985,NULL,NULL,NULL,NULL,NULL,NULL,NULL,NULL
2000,Staten Island,Outdoor,Silver Lake Tennis,Silver Lake Park,40.628358,-74.099058,NULL,NULL,NULL,NULL,NULL,NULL,NULL,NULL
2000,Staten Island,Outdoor,South Beach,South Beach,40.579313,-74.077688,NULL,NULL,NULL,NULL,NULL,NULL,NULL,NULL
2000,Staten Island,Outdoor,Staten Island Ferry Terminal,Richmond Terrace,40.642709,-74.075724,NULL,NULL,NULL,NULL,NULL,NULL,NULL,NULL
2000,Staten Island,Outdoor,Staten Island Ferry Terminal,Richmond Terrace,40.642324,-74.075489,NULL,NULL,NULL,NULL,NULL,NULL,NULL,NULL
2000,Staten Island,Outdoor,Staten Island Ferry Terminal,Hyatt Ave,40.642303,-74.076549,NULL,NULL,NULL,NULL,NULL,NULL,NULL,NULL
2000,Staten Island,Indoor,Tottenville Pool,Hylan Blvd,40.505646,-74.235477,NULL,NULL,NULL,NULL,NULL,NULL,NULL,NULL
2000,Staten Island,Outdoor,Walker Park,Delafield Pl & Bard Ave,40.643799,-74.108845,NULL,NULL,NULL,NULL,NULL,NULL,NULL,NULL
2000,Staten Island,Outdoor,Walker Park,Davis Ave & Livingston Ct,40.642843,-74.11032,NULL,NULL,NULL,NULL,NULL,NULL,NULL,NULL
2000,Staten Island,Outdoor,Walker Park,Delafield Pl & Davis Ave,40.643449,-74.11046,NULL,NULL,NULL,NULL,NULL,NULL,NULL,NULL
2000,Staten Island,Outdoor,Walker Park,Livingston Ct & bard Ave,40.643343,-74.108641,NULL,NULL,NULL,NULL,NULL,NULL,NULL,NULL
2000,Staten Island,Indoor,West Brighton Pool,899 Henderson Ave,40.637121,-74.119287,NULL,NULL,NULL,NULL,NULL,NULL,NULL,NULL
2000,Staten Island,Outdoor,Willowbrook Park,Willowbrook Park,40.603832,-74.158697,NULL,NULL,NULL,NULL,NULL,NULL,NULL,NULL
2000,Staten Island,Outdoor,Willowbrook Park,Willowbrook Park,40.603828,-74.16125,NULL,NULL,NULL,NULL,NULL,NULL,NULL,NULL
2000,Staten Island,Outdoor,Wolfe's Pond,Wolfe's Pond,40.517368,-74.190913,NULL,NULL,NULL,NULL,NULL,NULL,NULL,NULL
2000,Staten Island,Outdoor,Wolfe's Pond,Wolfe's Pond,40.518652,-74.18731,NULL,NULL,NULL,NULL,NULL,NULL,NULL,NULL
Queens,Astoria Arrow Community Supported Agriculture,"35-30 35th St
Astoria, NY 11106&nbsp;
(40.75616679371618, -73.92576690882862)",food scraps,Thursday,4:30 - 7:30 PM,(May 31 to Nov 29)(skip November 22),food scrap drop-off when CSA is in operation,NYC Compost Project Local Organics Recovery Program ,Western Queens Compost Initiative  through the NYC Compost Project Local Organics Recovery Program ,http://www.nyc.gov/html/nycwasteless/html/compost/compostproj_orp_program.shtml
Brooklyn,462 Halsey Community Garden,"462 Halsey Street
Brooklyn, NY 11223&nbsp;&nbsp;&nbsp;
(40.68338860098805, -73.9357346332942)",food scraps,whenever the garden is open,whenever the garden is open,whenever the garden is open,check website regularly for drop off schedule updates,462 Halsey Community Garden  ,462 Halsey Community Garden  ,http://462halsey.com/composting/
Manhattan,57th Street Greenmarket,"57th St &amp; 9th Ave
New York, NY 10019&nbsp;&nbsp;
(40.76489999963542, -73.98420000022969)",food scraps,Saturdays,8 am – 1 pm,"(through Dec 22, 2012)",check website for specific food scrap drop-off requirements and schedule updates,DSNY & GrowNYC Food Waste Drop-Off Program ,NYC Department of Sanitation,http://www.nyc.gov/html/nycwasteless/html/compost/compostproj_orp_program.shtml
Manhattan,Union Square Greenmarket,"39 Union Square West
New York, NY 10003&nbsp;
(40.73692524139233, -73.99048535843798)",food scraps,"Mondays, Wednesdays, Fridays, Saturdays",8 am – 5 pm,Year Round,households only; no businesses or other commercial generators may drop off organic waste,Lower East Side Ecology Center ,Lower East Side Ecology Center ,http://www.lesecologycenter.org/
Brooklyn,Grand Army Plaza Greenmarket,"Prospect Park West &amp; Plaza St West
Brooklyn, NY 11238&nbsp;
(40.679380000286926, -73.9635700003551)",food scraps,Saturdays,8 am – 3:30 pm,Year Round,check website for specific food scrap drop-off requirements and schedule updates,DSNY & GrowNYC Food Waste Drop-Off Program ,GrowNYC community partners,http://www.nyc.gov/html/nycwasteless/html/compost/compostproj_orp_program.shtml
Manhattan,82nd Street Greenmarket,"East 82nd St &amp; York Ave
New York, NY 10028&nbsp;&nbsp;
(40.77601999982329, -73.95274999961265)",food scraps,Saturdays,9 am – 1 pm,,check website for specific food scrap drop-off requirements and schedule updates,DSNY & GrowNYC Food Waste Drop-Off Program ,NYC Department of Sanitation,http://www.nyc.gov/html/nycwasteless/html/compost/compostproj_orp_program.shtml
Queens,Sunnyside Greenmarket,"43rd St &amp; Skillman Ave
Sunnyside, NY 11104&nbsp;
(40.743759999624444, -73.9216400002856)",food scraps,Saturdays,9 am – 12 pm,,food scrap drop off only when farmers market is in operation,Western Queens Compost Initiative  through the NYC Compost Project Local Organics Recovery Program ,Western Queens Compost Initiative  through the NYC Compost Project Local Organics Recovery Program ,http://www.nyc.gov/html/nycwasteless/html/compost/compostproj_orp_program.shtml
Brooklyn,Carrol Gardens Greenmarket,"Carroll St, b/t Smith &amp; Court
Brooklyn, NY 11231&nbsp;
(40.680220000352904, -74.0006699998205)",food scraps,Sundays,8 am – 1 pm,,check website regularly for drop off schedule updates,DSNY & GrowNYC Food Waste Drop-Off Program ,NYC Department of Sanitation,http://www.nyc.gov/html/nycwasteless/html/compost/compostproj_orp_program.shtml
Brooklyn,Red Hook Community Farm,"580 Columbia St b/t Halleck St &amp; Sigourney St
Brooklyn, NY 11231&nbsp;&nbsp;
(40.680220000352904, -74.0006699998205)",food scraps,Saturdays,10 am to 3 pm ,(April - November) Check the calendar on home page for winter  “community composting” times.,"bring compostables to ""compost row"" on the southwest edge of the farm and follow easy self-help composting instructions",Red Hook Community Farm ,Red Hook Community Farm ,http://www.added-value.org/
Brooklyn,McCarren Park Greenmarket,"229 North 12th St
Brooklyn, NY 11211&nbsp;
(40.71978151369627, -73.95335566994004)",food scraps,Saturdays,8 am – 2 pm,Year Round,check website for specific food scrap drop-off requirements and schedule updates,DSNY & GrowNYC Food Waste Drop-Off Program ,GrowNYC community partners,http://www.nyc.gov/html/nycwasteless/html/compost/compostproj_orp_program.shtml
Staten Island,St. George Greenmarket,"St. Mark Place &amp; Hyatt St.
Staten Island, NY 10301&nbsp;&nbsp;
(40.631469999640956, -74.09150999988645)",food scraps,Saturdays,8 am – 1:00 pm,(May 12-Nov 17 2012),check website for specific food scrap drop-off requirements and schedule updates,DSNY & GrowNYC Food Scrap Drop-Off Program ,NYC Department of Sanitation,http://www.nyc.gov/html/nycwasteless/html/compost/compostproj_orp_program.shtml
Brooklyn,North Brooklyn Compost Project @ McCarren Park,"229 North 12th St
Brooklyn, NY 11211&nbsp;
(40.71978151369627, -73.95335566994004)",food scraps,Saturdays,9 am – 12 pm,Year Round,must assist with maintenance of compost site,North Brooklyn Compost Project ,North Brooklyn Compost Project ,http://northbrooklyncompostproject.wordpress.com/
Queens,Queens County Farm Museum,"73-50 Little Neck Parkway
Floral Park, NY 11004-1129&nbsp;
(40.748013882013595, -73.71942969880695)",food scraps,Monday - Sunday,10 am – 4:30 pm,,"food scrap drop off only when farm stand in operation; look for the bin and the ""What to Compost"" sign",Queens County Farm Museum ,Queens County Farm Museum ,http://www.queensfarm.org/
Brooklyn,Compost For Brooklyn,"Newkirk Ave &amp; East 8th St
Brooklyn, NY 11230&nbsp;
(40.62294000018102, -73.96349999982499)","food scraps, leaves, garden trimmings","Saturdays, Sundays, Thursdays",Sat: 10 am– 1 pm; Sun  1 – 4 pm; Thur  4:30 to 6:30 PM,Year Round,check website regularly for drop off schedule updates,Compost For Brooklyn ,Compost For Brooklyn ,http://compostforbrooklyn.org/
Staten Island,Staten Island Mall Greenmarket,"2655 Richmond Ave (Parking lot)&nbsp;
Staten Island, NY 10315&nbsp;
(40.64244000010609, -74.07527999967209)",food scraps,Saturdays,9 am – 1 pm,(June 23-Dec 22 2012),check website for specific food scrap drop-off requirements and schedule updates,DSNY & GrowNYC Food Scrap Drop-Off Program ,NYC Department of Sanitation,http://www.nyc.gov/html/nycwasteless/html/compost/compostproj_orp_program.shtml
Manhattan,Governor's Island Public Food Scrap Drop-Off Sites,"Governors Island
New York, NY 10004&nbsp;&nbsp;
(40.70139752462481, -74.0116374125671)",food scraps,whenever Governors Island is open to the public,whenever Governors Island is open to the public,,check Trust for Governors Island   website for specific food scrap drop-off sites on Governors Island and schedule updates,NYC Compost Project Local Organics Recovery Program ,Earth Matter NY  through the NYC Compost Project Local Organics Recovery Program ,http://www.nyc.gov/html/nycwasteless/html/compost/compostproj_orp_program.shtml
Manhattan,79th Street Greenmarket,"79th St &amp; Columbus Ave
New York, NY 10024&nbsp;&nbsp;
(40.786299999945186, -73.9752700003101)",food scraps,Sundays,9 am – 1:00 pm,,check website for specific food scrap drop-off requirements and schedule updates,DSNY & GrowNYC Food Waste Drop-Off Program ,NYC Department of Sanitation,http://www.nyc.gov/html/nycwasteless/html/compost/compostproj_orp_program.shtml
Brooklyn,Bay Ridge Greenmarket,"3rd Ave &amp; 95th Street
Brooklyn, NY 11209&nbsp;&nbsp;&nbsp;
(40.62450999973686, -74.03007000033011)",food scraps,Saturdays,8 am – 1:00 pm,"May 12-Nov 17, 2012",check website regularly for drop off schedule updates,DSNY & GrowNYC Food Waste Drop-Off Program ,NYC Department of Sanitation,http://www.nyc.gov/html/nycwasteless/html/compost/compostproj_orp_program.shtml
Manhattan,Lower East Side Ecology Center Community Garden,"North side of East 7th St between Ave B &amp; Ave C
New York, NY 10009&nbsp;
(40.72638999989874, -73.9809699996656)",food scraps,Sundays,8 am – 5 pm,,households only; no businesses or other commercial generators may drop off organic waste,Lower East Side Ecology Center ,Lower East Side Ecology Center ,http://www.lesecologycenter.org/
Manhattan,Tucker Square Greenmarket,"66th St. &amp; Columbus Ave.
New York, NY 10023&nbsp;&nbsp;
(40.77696000000418, -73.98186000023867)",food scraps,Saturdays,8 am – 1:00 pm,,check website for specific food scrap drop-off requirements and schedule updates,DSNY & GrowNYC Food Waste Drop-Off Program ,NYC Department of Sanitation,http://www.nyc.gov/html/nycwasteless/html/compost/compostproj_orp_program.shtml
Manhattan,Tribeca Greenmarket,"Greenwich St &amp Chambers St
New York, NY 10007&nbsp;
(40.71370000015503, -74.00789999958516)",food scraps,Saturdays,8 am – 1 pm,,check website for specific food scrap drop-off requirements and schedule updates,DSNY & GrowNYC Food Waste Drop-Off Program ,NYC Department of Sanitation,http://www.nyc.gov/html/nycwasteless/html/compost/compostproj_orp_program.shtml
Queens,Long Island City Community Garden,"49th Ave between Vernon Blvd and 5th St
Long Island City, NY 11101&nbsp;
(40.74828999988375, -73.94114000021068)",food scraps,email licgardencompost@gmail.com for info,,Year Round,food scrap drop off during designated collection times only; email licgardencompost@gmail.com for info,Long Island City Community Garden,Long Island City Community Garden,
Brooklyn,Prospect Heights Community Farm,"252 St. Marks Ave
Brooklyn, NY 11238&nbsp;
(40.67829843830225, -73.96765157211405)",food scraps,check garden for open hours,check garden for open hours,Year Round,garden membership or drop-off during garden's open hours,Prospect Heights Community Farm ,Prospect Heights Community Farm ,http://www.phcfarm.com/welcome/
Queens,Jackson Heights Greenmarket,"34th Ave at 77th St
Jackson Heights, NY 11372&nbsp;
(40.752350000052616, -73.88213999986095)",food scraps,Sundays,9 am – 12 pm,Year round,food scrap drop off when farmers market is in operation,Western Queens Compost Initiative  through the NYC Compost Project Local Organics Recovery Program ,Western Queens Compost Initiative  through the NYC Compost Project Local Organics Recovery Program ,http://www.nyc.gov/html/nycwasteless/html/compost/compostproj_orp_program.shtml
Manhattan,Tompkins Square Greenmarket,"East 7th St. &amp; Ave. A
New York, NY 10009&nbsp;&nbsp;
(40.72638999989874, -73.9809699996656)",food scraps,Sundays,8 am – 1 pm,,check website for specific food scrap drop-off requirements and schedule updates,DSNY & GrowNYC Food Waste Drop-Off Program ,NYC Department of Sanitation,http://www.nyc.gov/html/nycwasteless/html/compost/compostproj_orp_program.shtml
Brooklyn,Windsor Terrace - PS 154 Greenmarket @PS 154,"11th Ave b/t Sherman &amp; Windsor Pl.
Brooklyn, NY 11215&nbsp;&nbsp;
(40.66783000005461, -73.9829100000963)",food scraps,Sundays,8 am – 1:00 pm,"(July 8-Nov 18, 2012)",check website for specific food scrap drop-off requirements and schedule updates,DSNY & GrowNYC Food Waste Drop-Off Program ,NYC Department of Sanitation,http://www.nyc.gov/html/nycwasteless/html/compost/compostproj_orp_program.shtml
Manhattan,New Amsterdam Market ,"South Street b/t Beekman St. &amp; Peck Slip
New York, NY 10038&nbsp;&nbsp;
(40.70904999975784, -74.00542999989443)",food scraps,Sundays,8 am – 5 pm,Year Round,households only; no businesses or other commercial generators may drop off organic waste,NYC Compost Project Local Organics Recovery Program ,Earth Matter NY  through the NYC Compost Project Local Organics Recovery Program ,http://www.nyc.gov/html/nycwasteless/html/compost/compostproj_orp_program.shtml
Manhattan,Sherman Creek Center ,"3725 10th Ave (between Dyckman St &amp; 201st St)
New York, NY 10034&nbsp;
(40.86663999963645, -73.92150000012475)","food scraps, leaves, garden trimmings",Monday – Friday,8 am – 4 pm,Year Round,"Drop off food scraps in the green metal containers within the large operations yard on the east side of the street. Do not include any metal, plastic, meat, oils, cooked foods, or highly invasive weeds. Contact jsmith@nyrp.org with any questions.",New York Restoration Project ,New York Restoration Project ,http://www.nyrp.org/
Manhattan,92nd Street Greenmarket,"92nd St &amp; 1st Ave
New York, NY 10128&nbsp;&nbsp;
(40.7813999997104, -73.95056999980551)",food scraps,Sundays,9 am – 1 pm ,"(June 17-Dec 23, 2012)",check website for specific food scrap drop-off requirements and schedule updates,DSNY & GrowNYC Food Waste Drop-Off Program ,NYC Department of Sanitation,http://www.nyc.gov/html/nycwasteless/html/compost/compostproj_orp_program.shtml
Brooklyn,Brooklyn Borough Hall Greenmarket,"Court St &amp; Montague St
Brooklyn, NY 11201&nbsp;
(40.69373999970139, -73.99130999985647)",food scraps,Saturdays,8 am – 4 pm,Year Round,check website regularly for drop off schedule updates,DSNY & GrowNYC Food Waste Drop-Off Program ,GrowNYC community partners,http://www.nyc.gov/html/nycwasteless/html/compost/compostproj_orp_program.shtml
Queens,Socrates Sculpture Park Greenmarket,"32-01 Vernon Boulevard
Long Island City, NY 11106&nbsp;
(40.76764885342166, -73.93609480317753)",food scraps,Saturdays,9 am – 12 pm,,food scrap drop off only when farmers market is in operation,Western Queens Compost Initiative  through the NYC Compost Project Local Organics Recovery Program ,Western Queens Compost Initiative  through the NYC Compost Project Local Organics Recovery Program ,http://www.nyc.gov/html/nycwasteless/html/compost/compostproj_orp_program.shtml
Queens,Two Coves Community Garden,"11-01 30th Avenue
Astoria, NY 11104&nbsp;&nbsp;
(40.77205438915846, -73.93211351051998)",food scraps,garden open hours,,,"for most current information, please email wqnscompost@gmail.com",NYC Compost Project Local Organics Recovery Program ,Western Queens Compost Initiative  through the NYC Compost Project Local Organics Recovery Program ,http://www.nyc.gov/html/nycwasteless/html/compost/compostproj_orp_program.shtml
Manhattan,Abingdon Square Greenmarket,"West 12 St &amp; 8th Ave
New York, NY 10014&nbsp;
(40.733929999569966, -74.00501000031113)",food scraps,Saturdays,8 am – 1 pm,,check website for specific food scrap drop-off requirements and schedule updates,DSNY & GrowNYC Food Waste Drop-Off Program ,NYC Department of Sanitation,http://www.nyc.gov/html/nycwasteless/html/compost/compostproj_orp_program.shtml
Brooklyn,Sunset Park Greenmarket,"4th Avenue b/t 59th &amp; 60th Street
Brooklyn, NY 11220&nbsp;&nbsp;
(40.64135999976435, -74.01363999988592)",food scraps,Saturdays,8 am – 1 pm,"(June 23-Nov 17, 2012)",check website for specific food scrap drop-off requirements and schedule updates,DSNY & GrowNYC Food Waste Drop-Off Program ,NYC Department of Sanitation,http://www.nyc.gov/html/nycwasteless/html/compost/compostproj_orp_program.shtml
Queens,Steinway Library,"21-45 31 Street
Astoria, NY 11105&nbsp;
(40.77617000044535, -73.90902999973457)",food scraps,Tuesdays,4 pm – 5 pm,,"for most current information, please email wqnscompost@gmail.com",Western Queens Compost Initiative  through the NYC Compost Project Local Organics Recovery Program ,Western Queens Compost Initiative  through the NYC Compost Project Local Organics Recovery Program ,http://bignyc.org/western-queens-compost-initiative
Manhattan,Columbia University Greenmarket,"Broadway b/t 114 &amp; 115 St
New York, NY 10025&nbsp;&nbsp;&nbsp;
(40.798120000038125, -73.96729000013323)",food scraps,Sundays,8 am – 1 pm,,check website for specific food scrap drop-off requirements and schedule updates,DSNY & GrowNYC Food Waste Drop-Off Program ,NYC Department of Sanitation,http://www.nyc.gov/html/nycwasteless/html/compost/compostproj_orp_program.shtml
Brooklyn,Cortelyou Greenmarket,"Courtelyou Rd b/t Argyle &amp; Rugby Rd
Brooklyn, NY 11226&nbsp;&nbsp;
(40.64728000027196, -73.9573199999179)","food scraps, leaves, garden trimmings",Sundays,8 am – 1 pm,,check website regularly for drop off schedule updates,DSNY & GrowNYC Food Waste Drop-Off Program ,NYC Department of Sanitation,http://www.nyc.gov/html/nycwasteless/html/compost/compostproj_orp_program.shtml
Brooklyn,Fort Greene Greenmarket ,"Washington Park b/t Dekalb Ave &amp; Willoughby Ave
Brooklyn, NY 11201&nbsp;
(40.69373999970139, -73.99130999985647)",food scraps,Saturdays,8 am – 3 pm,Year Round,check website for specific food scrap drop-off requirements and schedule updates,DSNY & GrowNYC Food Waste Drop-Off Program ,GrowNYC community partners,http://www.nyc.gov/html/nycwasteless/html/compost/compostproj_orp_program.shtml
Manhattan,Inwood Greenmarket,"Isham St between Seaman Ave &amp; Cooper St
New York, NY 10034&nbsp;
(40.86663999963645, -73.92150000012475)",food scraps,Saturdays,8 am – 12 pm,,check website for specific food scrap drop-off requirements and schedule updates,DSNY & GrowNYC Food Waste Drop-Off Program ,New York Restoration Project ,http://www.nyc.gov/html/nycwasteless/html/compost/compostproj_orp_program.shtml